,Address,Lat,Lng,Name,Avgscore
0,"310 West Broadway, SoHo, New York City, NY 10013, United States of America",40.72084,-74.0006609,Soho Grand Hotel,8.5
1,"49 West 32nd Street, New York City, NY 10001, United States of America",40.7483562,-73.9879275,Radisson Martinique on Broadway,8.2
2,"9 Crosby Street, SoHo, New York City, NY 10013, United States of America",40.7198783,-74.00019,Nomo Soho,8.2
3,"1414 Avenue of the Americas, New York City, NY 10019, United States of America",40.7647657,-73.9766474,1 Hotel Central Park,9.1
4,"485 5th Avenue, New York City, NY 10017, United States of America",40.7528315,-73.9810927,Andaz 5th Avenue,8.7
5,"355 West 16th Street, Chelsea, New York City, NY 10011, United States of America",40.7422931,-74.0033024513301,Dream Downtown,8.1
6,"400 Fifth Avenue, New York City, NY 10018, United States of America",40.75010515,-73.9838130507339,"Langham Place, New York, Fifth Avenue",9.2
7,"525 Greenwich Street, SoHo, New York City, NY 10013, United States of America",nan,nan,Hotel Hugo,8.2
8,"848 Washington Street, Greenwich Village, New York City, NY 10014, United States of America",40.734094,-74.0084909,"The Standard, High Line New York",8.3
9,"36 Central Park South, New York City, NY 10019, United States of America",40.7648557,-73.9753440597068,Park Lane Hotel on Central Park,7.7
10,"52 West 13th Steet, Greenwich Village, New York City, NY 10011, United States of America",nan,nan,Walker Hotel Greenwich Village,8.7
11,"42 West 58th Street, New York City, NY 10019, United States of America",40.76432905,-73.9756665061464,AKA Central Park,8.7
12,"123 West 44th Street, New York City, NY 10036, United States of America",40.75679575,-73.9841242132111,AKA Times Square,8.8
13,"One United Nations Plaza, Midtown East, New York City, NY 10017, United States of America",nan,nan,ONE UN New York - Millennium Hotels and Resorts,7.7
14,"120 East 39th Street, Murray Hill, New York City, NY 10016 , United States of America",nan,nan,The Tuscany - A St Giles Signature Hotel,8.6
15,"151 West 54th Street, New York City, NY 10019 , United States of America",40.7632978,-73.9804876,The London NYC,8.5
16,"120 West 57th Street, New York City, NY 10019, United States of America",40.76457245,-73.9784701045248,Viceroy Central Park New York,8.3
17,"118 East 40th Street, Murray Hill, New York City, NY 10016, United States of America",nan,nan,The Renwick,8.6
18,"2 Avenue of the Americas, Tribeca, New York City, NY 10013, United States of America",40.7193082,-74.004836623397,The Roxy Hotel Tribeca,8.8
19,"1535 Broadway, New York City, NY 10036, United States of America",40.7586143,-73.9862045213736,New York Marriott Marquis,8.2
20,"70 West 45th Street, New York City, NY 10036, United States of America",40.7563313,-73.982194400076,Cassa Hotel 45th Street,8.7
21,"300 West 44th Street, Hell's Kitchen, New York City, NY 10036, United States of America",40.7630237,-73.999514,InterContinental New York Times Square,8.0
22,"123 West 28th Street, Chelsea, New York City, NY 10001, United States of America",nan,nan,CAMBRiA Hotel & Suites New York - Chelsea,8.8
23,"130 East 39th Street, Murray Hill, New York City, NY 10016, United States of America",nan,nan,The Court - A St Giles Hotel,7.9
24,"132 West 27th Street, Chelsea, New York City, 10001, United States of America",40.7513932,-74.0051842,INNSIDE New York NoMad,8.8
25,"30 Kenmare Street, New York City, NY 10012, United States of America",40.7206241333333,-73.9952259333333,Nolitan Hotel SoHo - New York,8.7
26,"101 West 57th Street at Sixth Avenue, New York City, NY 10019, United States of America",nan,nan,The Quin,8.7
27,"311 West 39th Street, Hell's Kitchen, New York City, NY 10018, United States of America",40.7569544,-73.9951051,Element Times Square West,8.4
28,"1033 Avenue of the Americas, New York City, NY 10018, United States of America",40.7527336666667,-73.9857616666667,Residence Inn by Marriott New York Manhattan/Times Square,8.3
29,"60 Thompson Street, SoHo, New York City, NY 10012, United States of America",40.7239398,-74.0030717,SIXTY SoHo,8.7
30,"18 9th Avenue, Greenwich Village, New York City, NY 10014, United States of America",nan,nan,Gansevoort Meatpacking,8.3
31,"65 West 54th street, New York City, NY 10019, United States of America",40.7624636,-73.9780938766681,Warwick New York,8.7
32,"1335 Avenue of Americas, New York City, NY10019, United States of America",nan,nan,New York Hilton Midtown,7.9
33,"38 West 36th Street, New York City, NY 10018, United States of America",40.75025735,-73.9854581088832,Executive Hotel Le Soleil New York,8.7
34,"109 East 42nd Street, Park Avenue at Grand Central Terminal, Midtown East, New York City, NY 10017, United States of America",nan,nan,Grand Hyatt New York,7.7
35,"45 West 44th Street, New York City, NY 10036, United States of America",40.75592755,-73.9815925100636,Sofitel New York,8.6
36,"5 Madison Avenue, New York City, NY 10010, United States of America",40.7413262,-73.9874694,The New York EDITION,9.0
37,"218 West 50th Street, New York City, NY 10019, United States of America",40.7615093043478,-73.9844758695652,citizenM New York Times Square,9.1
38,"226 West 52nd Street, New York City, NY 10019, United States of America",40.7627592,-73.9835907,Novotel New York Times Square,8.6
39,"1717 Broadway, New York City, NY 10019, United States of America",40.7644019,-73.9827276753807,Courtyard by Marriott New York Manhattan/Central Park,8.2
40,"145 West 44th Street, New York City, NY 10036, United States of America",40.7570832,-73.9847922529729,Millennium Broadway Hotel Times Square,7.9
41,"6 Times Square, New York City, NY 10036, United States of America",nan,nan,The Knickerbocker,9.0
42,"30 West 46th Street, New York City, NY 10036, United States of America",40.75646535,-73.9806386806034,"CAMBRiA Hotel & Suites, New York – Times Square",8.9
43,"234 West 48th Street, New York City, NY 10036, United States of America",40.7605187,-73.9864566893656,The Gallivant Times Square,7.4
44,"131 Madison Avenue, New York City, NY 10016, United States of America",40.7456416,-73.9843341,The Roger,8.5
45,"84 William Street, Wall Street - Financial District, New York City, NY 10038, United States of America",nan,nan,AKA Wall Street,8.9
46,"210 West 55th Street, New York City, NY 10019, United States of America",40.7644999,-73.9818968,Dream Midtown,8.3
47,"224 West 49th Street, New York City, NY 10019, United States of America",40.76097695,-73.9855278306191,The Time New York,8.0
48,"142 West 49th Street, New York City, NY 10019, United States of America",40.7598137,-73.9831774,Radio City Apartments,8.3
49,"145 East 47th Street, Midtown East, New York City, 10017, United States of America",nan,nan,The Bernic Hotel,9.6
50,"124 East 28th Street, New York City, NY 10016, United States of America",nan,nan,Park South Hotel,8.5
51,"34 East 32nd Street, New York City, NY 10016, United States of America",nan,nan,HGU New York,8.7
52,"700 Fifth Avenue at 55th Street, New York City, NY 10019, United States of America",nan,nan,The Peninsula New York,8.5
53,"16 East 46th Street, Midtown East, New York City, NY 10017, United States of America",nan,nan,The Gotham Hotel,8.2
54,"231 Hudson Street, SoHo, New York City, NY 10013, United States of America",40.7243403333333,-74.0079274444444,Arlo Hudson Square,8.7
55,"52 West 36th Street, New York City, NY 10018, United States of America",40.7503971,-73.9858177,Hyatt Place New York,8.4
56,"370 Canal Street, Tribeca, New York City, NY 10013, United States of America",40.7228854,-74.0067676,Sheraton Tribeca New York Hotel,7.8
57,"60 West 36th Street , New York City, NY 10018, United States of America",40.7504861,-73.9860561193537,Holiday Inn Express - Times Square South,8.4
58,"136 West 55th Street, New York City, NY 10019, United States of America",40.76344215,-73.9797938472658,Blakely New York Hotel,8.6
59,"161 Lexington Ave, Kips Bay, New York City, NY 10016, United States of America",nan,nan,Ramada New York Eastside,7.7
60,"157 West 47th Street, New York City, NY 10036, United States of America",40.75908625,-73.9835994025679,Night Hotel Times Square,7.5
61,"215 E. 64th Street, Upper East Side, New York City, NY 10065, United States of America",40.7643934,-73.9630922825913,Gardens NYC-an Affinia hotel,8.1
62,"515 Ninth Avenue, Hell's Kitchen, New York City, NY 10018, United States of America",nan,nan,Cassa Hotel Times Square,8.7
63,"25 West 51st Street, New York City, NY 10019, United States of America",40.7600141,-73.9777538234691,"Club Quarters Hotel, Opposite Rockefeller Center",8.0
64,"30-32 West 31st Street, New York City, NY 10001, United States of America",40.7522409,-73.9994661,Hyatt Herald Square Midtown,8.5
65,"237 West 54th Street, New York City, NY 10019, United States of America",40.76451015,-73.9830090813855,Hilton Garden Inn Central Park South,8.3
66,"12 East 31st Street, New York City, NY 10016, United States of America",nan,nan,Hotel Chandler,8.6
67,"102 North End Avenue, New York City, NY 10282, United States of America",40.714742,-74.0151689,Conrad New York,9.0
68,"235 West 46th Street, New York City, NY 10036, United States of America",40.75964865,-73.9870075564091,Paramount Times Square,6.9
69,"231 East 43rd Street, Midtown East, New York City, NY 10017, United States of America",nan,nan,Hampton Inn Manhattan Grand Central,8.7
70,"326 West 40th Street, Hell's Kitchen, New York City, NY 10018, United States of America",40.7590428,-73.9980914,Four Points by Sheraton Midtown - Times Square,8.3
71,"206 West 41th Street, New York City, NY 10036, United States of America",nan,nan,"Hotel Shocard, New York",8.1
72,"341 Broome Street, New York City, NY 10013, United States of America",40.7195833,-73.994844,Sohotel,8.1
73,"232 West 29th Street, Chelsea, New York City, NY 10001, United States of America",40.7483751,-73.9946737,Holiday Inn Express New York City Chelsea,8.0
74,"32 West 29th Street, Chelsea, New York City, NY 10001, United States of America",40.7490521,-73.9957491,"The Paul, an Ascend Hotel Collection Member",7.8
75,"871 Seventh Avenue at 55th Street, New York City, NY 10019, United States of America",nan,nan,Wellington Hotel,7.5
76,"152 West 51st Street, New York City, NY 10019, United States of America",40.76125745,-73.9827703991373,Michelangelo Hotel,9.0
77,"220 West 41st Street, New York City, NY 10036, United States of America",40.7556116,-73.9886087430976,Hampton Inn Times Square Central,8.7
78,"305 West 39th Street, Hell's Kitchen, New York City, NY 10018, United States of America",40.7569544,-73.9951051,Comfort Inn Times Square South Area,7.7
79,"1717 Broadway, New York City, NY 10019, United States of America",40.7644019,-73.9827276753807,Residence Inn by Marriott New York Manhattan/Central Park,8.6
80,"18 West 25th Street, Chelsea, New York City, NY 10010, United States of America",40.74320085,-73.9901033128361,Heritage Hotel New York City,7.1
81,"123 Nassau Street, Tribeca, New York City, NY 10038, United States of America",40.7110179444444,-74.0069278333333,"The Beekman, a Thompson Hotel",9.1
82,"32 East 32nd Street, New York City, NY 10016, United States of America",nan,nan,Hotel 32 32,8.1
83,"345 West 35 Street, Hell's Kitchen, New York City, NY 10001, United States of America",nan,nan,TRYP by Wyndham Times Square South,8.5
84,"54 Watts Street, SoHo, New York City, NY 10013, United States of America",40.7237455333333,-74.0052028,Hampton Inn Manhattan-SoHo,8.1
85,"1605 Broadway Avenue, New York City, NY 10019, United States of America",nan,nan,Crowne Plaza Times Square,8.1
86,"Two East 61st Street at 5th Avenue, Upper East Side, New York City, NY 10065, United States of America",nan,nan,"The Pierre, A Taj Hotel, New York",8.9
87,"7 East 27th Street, New York City, NY 10016, United States of America",nan,nan,The Evelyn,8.1
88,"11 West 51 Street, New York City, NY 10019, United States of America",nan,nan,The Jewel Facing Rockefeller Center,8.6
89,"371 Seventh Avenue, Chelsea, New York City, NY 10001, United States of America",nan,nan,Manhattan NYC-an Affinia hotel,7.8
90,"42 West 35th Street, New York City, NY 10001, United States of America",40.754886,-73.9977808,The Gregory,8.1
91,"128 East 45th Street, Midtown East, New York City, NY 10017, United States of America",nan,nan,"Club Quarters Hotel, Grand Central",8.6
92,"447 Lexington Avenue, Midtown East, New York City, NY 10017, United States of America",nan,nan,Hotel Boutique at Grand Central,8.5
93,"851 Eighth Avenue, Hell's Kitchen, New York City, NY 10019, United States of America",nan,nan,Hampton Inn Manhattan-Times Square North,8.3
94,"147 First Avenue, East Village, New York City, NY 10003, United States of America",nan,nan,East Village Hotel,8.2
95,"420 Park Avenue South, New York City, NY 10016, United States of America",nan,nan,Gansevoort Park Hotel NYC,8.8
96,"300 West 22nd Street, Chelsea, New York City, NY 10011, United States of America",40.7446533,-73.9993814,The GEM Hotel - Chelsea,8.0
97,"342 West 40 Street, Hell's Kitchen, New York City, NY 10018, United States of America",nan,nan,Distrikt Hotel New York City,8.8
98,"147 Mercer Street, SoHo, New York City, NY 10012, United States of America",40.723423,-73.9996089,The Mercer,8.8
99,"119 West 56th Street, New York City, NY 10019, United States of America",40.7643285,-73.9785719202775,Le Parker Méridien New York,7.9
100,"45 East 33rd Street, New York City, NY 10016, United States of America",nan,nan,Hilton Garden Inn New York/Midtown Park Avenue,8.6
101,"228 West 47th Street, New York City, NY 10036, United States of America",40.759647,-73.9862942589378,Hotel Edison,7.5
102,"851 Avenue of the Americas, Chelsea, New York City, NY 10001, United States of America",40.736032,-73.9978049,Kimpton Hotel Eventi,8.9
103,"540 Park Avenue, Upper East Side, New York City, NY 10065, United States of America",40.7644083,-73.9690396,Loews Regency New York Hotel,8.8
104,"307-311 46th Street, Hell's Kitchen, New York City, NY 10036, United States of America",nan,nan,RIU Plaza New York Times Square,8.5
105,"66 Charlton Street, SoHo, New York City, NY 10014, United States of America",nan,nan,Four Points by Sheraton Manhattan SoHo Village,8.1
106,"20 West 29th Street, Chelsea, New York City, NY 10001, United States of America",40.7490521,-73.9957491,Ace Hotel,8.6
107,"29 East 29th Street, New York City, NY 10016, United States of America",nan,nan,The Redbury New York,8.1
108,"125 Canal Street, Chinatown, New York City, NY 10002, United States of America",nan,nan,Leon Hotel,8.5
109,"321 West 35th Street, Hell's Kitchen, New York City, NY 10001, United States of America",40.7535085,-73.9938128388842,EVEN Hotel New York Times Square South,9.1
110,"114 West 40th Street, New York City, NY 10018, United States of America",40.7538071764706,-73.9858708823529,Courtyard New York Manhattan/Times Square,8.5
111,"33 West 55th Street, New York City, NY 10019, United States of America",40.76249615,-73.9763932597903,Shoreham Hotel,7.6
112,"49-53 Ann Street, Wall Street - Financial District, New York City, NY 10038, United States of America",nan,nan,Aloft Manhattan Downtown - Financial District,8.0
113,"85 West Broadway, Tribeca, New York City, NY 10007, United States of America",40.7152534,-74.0092237,Smyth - A Thompson Hotel,8.6
114,"160 Central Park South, New York City, NY 10019, United States of America",40.76617385,-73.9785096893545,JW Marriott Essex House New York,7.8
115,"301 Park Avenue, Midtown East, New York City, NY 10022, United States of America",nan,nan,Waldorf Astoria New York,7.9
116,"49 West 44th Street, New York City, NY 10036, United States of America",40.7558514,-73.9819340056079,The Iroquois New York,8.9
117,"373 Fifth Avenue, New York City, NY 10016 , United States of America",nan,nan,Hotel 373 Fifth Avenue,7.8
118,"52 William Street, Wall Street - Financial District, New York City, NY 10005, United States of America",nan,nan,Club Quarters Hotel Wall Street,8.1
119,"440 West 57th Street, Hell's Kitchen, New York City, NY 10019, United States of America",40.7683455918367,-73.9869550816327,Holiday Inn - Midtown - 57th Street,7.6
120,"66 Park Avenue, Murray Hill, New York City, NY 10016, United States of America",nan,nan,The Kitano Hotel New York,8.8
121,"307 West 37th Street, Hell's Kitchen, New York City, NY 10018, United States of America",40.7554842,-73.9954508,Courtyard by Marriott Times Square West,8.7
122,"330 West 40th Street, Hell's Kitchen, New York City, NY 10018, United States of America",40.7590428,-73.9980914,Fairfield Inn & Suites By Marriott New York Manhattan/Times Square,8.2
123,"190 Allen Street, Lower East Side, New York City, NY 10002, United States of America",nan,nan,Sixty LES,8.6
124,"6 Platt Street, Wall Street - Financial District, New York City, NY 10038, United States of America",nan,nan,Four Points by Sheraton New York Downtown,8.2
125,"511 Lexington Avenue at 48th Street, Midtown East, New York City, NY 10017 , United States of America",nan,nan,"The Lexington New York City, Autograph Collection",7.9
126,"25 Cooper Square, East Village, New York City, NY 10003, United States of America",40.727834,-73.9907397,The Standard - East Village,8.6
127,"170 Broadway, Wall Street - Financial District, New York City, NY 10007, United States of America",nan,nan,Residence Inn by Marriott New York Downtown Manhattan/World Trade Center Area,9.0
128,"163 Orchard Street, Lower East Side, New York City, NY 10003, United States of America",nan,nan,Orchard Street Hotel,8.2
129,"144 Washington Street, Wall Street - Financial District, New York City, NY 10006, United States of America",nan,nan,World Center Hotel,8.6
130,"25 East 77th Street, Upper East Side, New York City, NY 10075, United States of America",nan,nan,The Mark New York,9.1
131,"93 Bowery Street, Chinatown, New York City, NY 10002, United States of America",nan,nan,Wyndham Garden Chinatown,8.2
132,"358 West 58th Street, Hell's Kitchen, New York City, NY 10019, United States of America",40.7683534,-73.9849443,"Hudson New York, Central Park",7.2
133,"569 Lexington Avenue, Midtown East, New York City, NY 10022, United States of America",nan,nan,DoubleTree by Hilton Metropolitan New York City,7.8
134,"129 Front Street, Wall Street - Financial District, New York City, NY 10005, United States of America",nan,nan,Eurostars Wall Street,7.8
135,"1155 Broadway, Chelsea, New York City, NY 10001, United States of America",nan,nan,Broadway Plaza Hotel,8.2
136,"63 West 38th Street, New York City, NY 10018, United States of America",40.7521714,-73.9853615,Refinery Hotel - New York,8.9
137,"121 West 28th Street, Chelsea, New York City, NY 10001, United States of America",nan,nan,Hilton Garden Inn New York/Manhattan-Chelsea,8.2
138,"135 West 30th Street, Chelsea, New York City, NY 10001, United States of America",40.7545799,-74.0069948,Courtyard by Marriott New York Manhattan/Chelsea,8.6
139,"40 West 45th Street, New York City, NY 10036, United States of America",40.75592315,-73.9812951172532,Club Quarters Hotel Midtown - Times Square,8.1
140,"161 Front Street, Wall Street - Financial District, New York City, NY 10038, United States of America",nan,nan,Fairfield Inn by Marriott New York Manhattan/Financial District,8.4
141,"2178 Broadway, Upper West Side, New York City, NY 10024, United States of America",40.782176,-73.9806003,NYLO New York City,8.3
142,"250 West 77th Street, Upper West Side, New York City, NY 10024, United States of America",40.7825165,-73.9812483,Hotel Belleclaire,7.8
143,"59 West 35th Street, New York City, NY 10001, United States of America",40.754886,-73.9977808,Hampton Inn Manhattan-35th Street/Empire State Building,8.5
144,"481 Eighth Avenue, Hell's Kitchen, New York City, NY 10001 , United States of America",nan,nan,Wyndham New Yorker Hotel,7.7
145,"31 West 71st Street, Upper West Side, New York City, NY 10023, United States of America",40.776255,-73.9776257788461,La Quinta Inn & Suites New York City Central Park,7.4
146,"44 West 44th Street, New York City, NY 10036, United States of America",40.7555936,-73.9821719,Royalton Times Square,8.1
147,"2296 Frederick Douglas Boulevard, Harlem, New York City, NY 10027, United States of America",nan,nan,Aloft Harlem,8.5
148,"866 Third Avenue, Midtown East, New York City, NY 10022, United States of America",nan,nan,Courtyard New York Manhattan/Midtown East,8.5
149,"125 West 45th Street, New York City, NY 10036, United States of America",40.7574744,-73.9837818898081,Room Mate Grace Boutique Hotel,8.7
150,"870 7th Avenue at 56th Street, New York City, NY 10019, United States of America",nan,nan,Park Central,7.8
151,"116 West 28th Street, Chelsea, New York City, NY 10001, United States of America",nan,nan,Fairfield Inn & Suites by Marriott New York Manhattan/Chelsea,8.3
152,"2 Lexington Avenue, Gramercy, New York City, NY 10010, United States of America",nan,nan,Gramercy Park Hotel,8.2
153,"358 West 58th Street, Hell's Kitchen, New York City, NY 10019, United States of America",40.7683534,-73.9849443,"Hudson Central Park, A Morgans Hotel",7.4
154,"55 Church Street, Wall Street - Financial District, New York City, NY 10007, United States of America",nan,nan,Millenium Hilton,8.2
155,"140 Washington Street, Wall Street - Financial District, New York City, NY 10006, United States of America",nan,nan,Club Quarters Hotel World Trade Center,8.6
156,"201 West 55th Street, New York City, NY 10019, United States of America",40.7643756,-73.9810991,WestHouse Hotel New York,8.2
157,"1568 Broadway, New York City, NY 10036, United States of America",40.7590118,-73.9844835,DoubleTree Suites by Hilton NYC - Times Square,8.1
158,"235 West 35th Street, New York City, NY 10001, United States of America",40.7523859,-73.991200930697,Wingate by Wyndham Manhattan Midtown,7.7
159,"125 West 26th Street, Chelsea, New York City, NY 10001, United States of America",40.7451989795918,-73.9921346938775,Holiday Inn Manhattan 6th Ave - Chelsea,7.7
160,"522 W 38th Street, Hell's Kitchen, New York City, NY 10018, United States of America",40.7573258,-73.9982955,Magnuson Convention Center Hotel NYC,7.0
161,"9 West 26th Street , Chelsea, New York City, NY 10010, United States of America",nan,nan,Flatiron Hotel,7.9
162,"159 Grand Street, SoHo, New York City, NY 10013, United States of America",40.7198433,-73.9989094,Solita Soho Hotel,8.0
163,"19 West 31st Street, New York City, NY 10001, United States of America",40.7522409,-73.9994661,Herald Square Hotel,7.7
164,"132 West 47th Street, New York City, NY 10036, United States of America",40.7583844,-73.9832931,Sanctuary Hotel New York,8.8
165,"237 Madison Avenue, Murray Hill, New York City, NY 10016, United States of America",nan,nan,Morgans Hotel - A Morgans Original,8.5
166,"55 West 44th Street, New York City, NY 10036, United States of America",40.75593355,-73.9821137028921,City Club Hotel,8.6
167,"341 West 36th Street, Hell's Kitchen, New York City, NY 10018, United States of America",40.7558731,-73.998209,DoubleTree by Hilton New York Times Square South,7.6
168,"401 7th Avenue, New York City, NY 10001, United States of America",40.7496755,-73.9905248,Hotel Pennsylvania,6.0
169,"99 Washington Street, Wall Street - Financial District, New York City, NY 10006, United States of America",nan,nan,Holiday Inn Manhattan Financial District,8.1
170,"790 7th Avenue, New York City, NY 10019, United States of America",40.7621059,-73.9827545,The Manhattan at Times Square,7.1
171,"136 West 42nd Street, New York City, NY 10036, United States of America",40.7551901,-73.9857061406086,Hilton Garden Inn Times Square Central,8.4
172,"206 East 52nd Street, Midtown East, New York City, NY 10022, United States of America",nan,nan,Hilton Garden Inn New York Manhattan Midtown East,8.3
173,"700 8th Avenue, New York City, NY 10036, United States of America",40.75856,-73.9884289,Row NYC at Times Square,7.2
174,"215 West 94th Street, Upper West Side, New York City, NY 10025, United States of America",40.7932576,-73.972207,Days Hotel Broadway at 94th Street,7.0
175,"132 West 45th Street, New York City, NY 10036, United States of America",40.75714965,-73.9841993232322,"Night Hotel Theater District, Times Square",8.1
176,"22 East 38th Street, Murray Hill, New York City, NY 10016, United States of America",nan,nan,NH New York Jolly Madison Towers,7.2
177,"95 West Broadway, Tribeca, New York City, NY 10007, United States of America",40.7156646,-74.0088986,Cosmopolitan Hotel Tribeca,8.0
178,"181 Varick Street, SoHo, New York City, NY 10014, United States of America",40.7210964,-74.0065526,Courtyard by Marriott New York Manhattan / Soho,8.6
179,"120 West 44th Street, New York City, 10036, United States of America",40.7584823,-73.9879197,Hotel Mela Times Square,8.1
180,"8 Stone Street, Wall Street - Financial District, New York City, NY 10004, United States of America",nan,nan,DoubleTree by Hilton NYC - Financial District,7.8
181,"16 East 32nd Street, New York City, NY 10016, United States of America",nan,nan,Avalon Hotel,8.4
182,"63 West 35th Street, New York City, NY 10001, United States of America",40.754886,-73.9977808,Hilton Garden Inn West 35th Street,8.6
183,"11 East 31st Street, New York City, NY 10016, United States of America",nan,nan,Arlo Nomad,-999.0
184,"4 West 31st Street, New York City, NY 10001, United States of America",40.7522409,-73.9994661,Hotel Wolcott,7.8
185,"2688 Broadway, 103rd Street, Upper West Side, New York City, NY 10025, United States of America",nan,nan,Hotel Marrakech,7.0
186,"128 West 29th Street, Chelsea, New York City, NY 10001, United States of America",40.7490521,-73.9957491,DoubleTree by Hilton - Chelsea,7.8
187,"3 East 40th Street, New York City, NY 10016, United States of America",nan,nan,Courtyard by Marriott New York Manhattan/ Fifth Avenue,7.9
188,"33 West 37 Street, New York City, NY 10018, United States of America",nan,nan,"Marriott Vacation Club Pulse, New York City",8.7
189,"2 West Street, New York City, NY 10004, United States of America",40.7055391,-74.0172578,"The Ritz-Carlton New York, Battery Park Hotel",8.6
190,"79 Crosby Street, SoHo, New York City, NY 10012, United States of America",40.7228566666667,-73.9976874,Crosby Street Hotel,9.4
191,"308 W 58th Street, Hell's Kitchen, New York City, NY 10019, United States of America",40.767507,-73.9831632,6 Columbus - A SIXTY Hotel,7.8
192,"144 East 40th Street, Murray Hill, New York City, NY 10016, United States of America",nan,nan,Seton Hotel,8.5
193,"777 6th Avenue, Chelsea, New York City, NY 10001, United States of America",40.736032,-73.9978049,777 Sixth Avenue,-999.0
194,"180 Ludlow Street, Lower East Side, New York City, NY 10002, United States of America",nan,nan,The Ludlow Hotel,8.8
195,"218 West 35th Street, New York City, NY 10001, United States of America",40.7518444489796,-73.9907992040816,Renaissance New York Midtown Hotel,8.9
196,"134 Fourth Avenue (corner of 13th Street and Fourth Avenue), New York City, NY 10003, United States of America",nan,nan,Hyatt Union Square New York,8.7
197,"5 West 8th Street, Greenwich Village, New York City, NY 10011, United States of America",40.7326377,-73.9968126466672,The Marlton Hotel,8.9
198,"2130 Broadway, Upper West Side, New York City, NY 10023, United States of America",40.7804903,-73.9811313,Hotel Beacon,8.9
199,"330 East 56th Street, Midtown East, New York City, NY 10022, United States of America",nan,nan,AKA Sutton Place,-999.0
200,"808 Columbus Ave - 14D, Upper West Side, New York City, 10018, United States of America",nan,nan,NY Away - Central Park UWS 2-Bedroom - 14D,-999.0
201,"11th Ave and 42nd Street , Hell's Kitchen, New York City, NY 10036, United States of America",nan,nan,La Casa De Mis Primos BORJA,8.8
202,"335 Bowery, East Village, New York City, NY 10003, United States of America",nan,nan,The Bowery Hotel,9.1
203,"135 West 45th Street, New York City, NY 10036, United States of America",40.757572,-73.9840221921105,Hyatt Centric Times Square New York,8.9
204,"11th Ave and 42nd Street, Hell's Kitchen, New York City, NY 10036, United States of America",nan,nan,La Casa De Mis Primos SOFIA,9.1
205,"28 West 53rd Street, New York City, NY 10019, United States of America",40.7607399375,-73.9768225208333,Baccarat Hotel and Residences New York,9.2
206,"50 West 36th Street, New York City, NY 10018, United States of America",40.75034045,-73.9856679433752,Best Western Premier Herald Square,8.5
207,"24 East 39th Street, Murray Hill, New York City, NY 10016, United States of America",nan,nan,The William,9.1
208,"100 East 50th Street, Midtown East, New York City, NY 10022, United States of America",nan,nan,The Towers of the Waldorf Astoria,8.4
209,"52 East 41st Street, Murray Hill, New York City, NY 10017, United States of America",40.75158515,-73.9791374080908,Dylan Hotel NYC,7.9
210,"233 West 49th Street, New York City, NY 10019, United States of America",40.7614888,-73.9855463,The Pearl Hotel,8.9
211,"43 West 32nd Street, New York City, NY 10001, United States of America",40.748149,-73.987526,Hotel Stanford NYC Koreatown,7.8
212,"127 West 28th Street, Chelsea, New York City, NY 10001, United States of America",nan,nan,Hotel Indigo - Chelsea,8.0
213,"11 Howard, SoHo, New York City, NY 10013, United States of America",nan,nan,11 Howard,8.5
214,"201 West 79th Street, Upper West Side, New York City, NY 10024, United States of America",40.7835075,-73.9783621034797,Hotel Lucerne,8.5
215,"17 West 32nd Street, New York City, NY 10001, United States of America",40.747782,-73.9865703,La Quinta Inn & Suites Manhattan,8.2
216,"171 Ludlow Street, Lower East Side, New York City, NY 10002, United States of America",nan,nan,Hotel Indigo Lower East Side,8.8
217,"111 East 56th Street, Midtown East, New York City, NY 10022, United States of America",nan,nan,Lombardy Hotel,8.5
218,"103 Waverly Place, Greenwich Village, New York City, NY 10011, United States of America",40.73249705,-73.998736086779,Washington Square Hotel,8.5
219,"20 East 76th Street, Upper East Side, New York City, NY 10021, United States of America",40.7744309,-73.9639538,The Surrey,8.8
220,"15 West 56th Street, New York City, NY 10019, United States of America",40.7629278,-73.975365,Chambers Hotel,8.9
221,"50 Bowery, Chinatown, New York City, NY 10013, United States of America",40.7158238,-73.9965587,Hotel 50 Bowery,-999.0
222,"246 Spring Street, SoHo, New York City, NY 10013, United States of America",40.722663,-73.9979799,Trump SoHo,8.7
223,"1170 Broadway , Chelsea, New York City, NY 10001, United States of America",nan,nan,The NoMad Hotel,8.9
224,"111 East 48th Street, Midtown East, New York City, 10017, United States of America",nan,nan,InterContinental New York Barclay Hotel,9.0
225,"57 East 57th Street, Midtown East, New York City, NY 10022, United States of America",nan,nan,Four Seasons Hotel New York,8.5
226,"153 West 57th Street, New York City, NY 10019, United States of America",40.7654216,-73.9793142,Park Hyatt New York,9.1
227,"231 Grand Street, Chinatown, New York City, NY 10013, United States of America",40.7184763,-73.9952733,Best Western Bowery Hanbee Hotel,7.9
228,"45 West 38th Street, New York City, NY 10018, United States of America",40.7519544,-73.9848509,Archer Hotel New York,9.1
229,"129 West 46th St, New York City, NY 10036, United States of America",40.75812025,-73.9834384682969,Broadway at Times Square Hotel,8.5
230,"363 West 16th Street, Chelsea, New York City, NY 10011, United States of America",40.7422561,-74.0039855,The Maritime Hotel,8.8
231,"155 E. 50th Street, Midtown East, New York City, NY 10022, United States of America",nan,nan,Fifty NYC-an Affinia hotel,8.4
232,"222 East 39th street, Murray Hill, New York City, NY 10016, United States of America",nan,nan,Murray Hill Residence,-999.0
233,"270 West 43rd Street, New York City, NY 10036, United States of America",40.7574672857143,-73.988478,Westin New York at Times Square,8.1
234,"150 East 50th Street, Midtown East, New York City, NY 10022, United States of America",nan,nan,San Carlos Hotel New York,8.9
235,"60 East 54th Street, Midtown East, New York City, NY 10022, United States of America",nan,nan,Hotel Elysee,9.1
236,"39th Street and 9th Avenue, Hell's Kitchen, New York City, NY 10018, United States of America",nan,nan,NY Away - Two Bedroom Apartment - Times Square,5.9
237,"6 West 32nd Street, New York City, NY 10001, United States of America",40.7472746,-73.9863371376147,"Nyma, The New York Manhattan Hotel",7.8
238,"234 East 46th Street, Midtown East, New York City, NY 10017, United States of America",nan,nan,AKA United Nations,-999.0
239,"59 West 46th Street, New York City, NY 10036, United States of America",40.75721265,-73.981250358953,The Hotel at Times Square,7.8
240,"242 West 76th Street, Upper West Side, New York City, NY 10023, United States of America",40.7818628,-73.9818911,The Milburn Hotel,8.5
241,"455 Madison Avenue, Midtown East, New York City, NY 10022, United States of America",nan,nan,Lotte New York Palace,8.7
242,"340 West 40th Street, Hell's Kitchen, New York City, NY 10018, United States of America",40.7590428,-73.9980914,Staybridge Suites - Times Square - New York City,8.3
243,"160 West 25th Street, Chelsea, New York City, NY 10001, United States of America",40.7448333877551,-73.9936296734694,Four Points by Sheraton Manhattan Chelsea,8.2
244,"One Central Park West, Upper West Side, New York City, NY 10023, United States of America",nan,nan,Trump International New York,8.9
245,"653 11th Avenue at 48th, Hell's Kitchen, New York City, NY 10036, United States of America",nan,nan,Kimpton Ink48 Hotel,8.6
246,"130 West 46th Street, New York City, NY 10036, United States of America",40.75778325,-73.9837763414624,The Kimpton Muse Hotel,8.8
247,"1567 Broadway, New York City, NY 10036, United States of America",40.7593659,-73.9852972,W New York - Times Square,7.8
248,"148 East 48th Street , Midtown East, New York City, NY 10017, United States of America",nan,nan,Residence Inn by Marriott New York Manhattan/ Midtown Eastside,8.8
249,"44 West 63rd Street, Upper West Side, New York City, NY 10023, United States of America",40.77133675,-73.9825999823654,Empire Hotel,7.4
250,"343 West 39th Street, Hell's Kitchen, New York City, NY 10018, United States of America",40.7569544,-73.9951051,Holiday Inn Express - Times Square,7.9
251,"126 Water Street, Wall Street - Financial District, New York City, NY 10005, United States of America",nan,nan,Holiday Inn Express - Wall Street,8.1
252,"21 West 37th Street, New York City, NY 10018, United States of America",40.75113985,-73.98458135,Fairfield Inn & Suites by Marriott New York Manhattan/Fifth Avenue,8.3
253,"517 Lexington Avenue, Midtown East, New York City, NY 10017, United States of America",nan,nan,Hotel 48LEX New York,8.5
254,"230 West 54th Street, New York City, NY 10019, United States of America",40.7640637,-73.9828112,Ameritania at Times Square,8.2
255,"145 East 49th Street, Midtown East, New York City, NY 10022, United States of America",nan,nan,Best Western Plus Hospitality House Suites,8.3
256,"312 West 37th Street, Hell's Kitchen, New York City, NY 10018, United States of America",40.7554842,-73.9954508,Homewood Suites Midtown Manhattan Times Square South,8.8
257,"303 Lexington Avenue, Murray Hill, New York City, NY 10016, United States of America",nan,nan,Shelburne NYC-an Affinia hotel,8.4
258,"201 East 24th Street, Kips Bay, New York City, 10010, United States of America",40.7385046,-73.980308,The Marcel at Gramercy,7.9
259,"145 East 39th Street, Murray Hill, New York City, NY 10016, United States of America",nan,nan,Pod 39,8.3
260,"222 East 39th Street, Murray Hill, New York City, NY 10016, United States of America",nan,nan,Oakwood at the Nash,8.6
261,"125 East 50th Street, Midtown East, New York City, NY 10022, United States of America",nan,nan,The Benjamin,8.2
262,"3 Mitchell Place, Midtown East, New York City, 10017, United States of America",nan,nan,Bridgestreet at Beekman Towers,8.7
263,"45 West 81st Street, Upper West Side, New York City, NY 10024, United States of America",40.78314495,-73.9736920095449,Excelsior Hotel,8.2
264,"330 West 38th Street Room 1606, Hell's Kitchen, New York City, NY 10018, United States of America",nan,nan,Apartment168 NYC,8.6
265,"339 West 39th Street, Hell's Kitchen, New York City, NY 10018, United States of America",40.7569544,-73.9951051,Candlewood Suites NYC -Times Square,8.2
266,"27 Grand Street, SoHo, New York City, NY 10013, United States of America",40.7227133,-74.0047967,The James New York,8.5
267,"135 East Houston Street, New York City, NY 10002 , United States of America",nan,nan,"Gatsby Hotel, An Ascend Hotel Collection Member",7.6
268,"71 West 35th Street , New York City, NY 10001, United States of America",40.754886,-73.9977808,Courtyard by Marriott New York Manhattan/Herald Square,8.6
269,"Tishman Speyer, 101 West End Ave, Upper West Side, New York City, 10023, United States of America",nan,nan,NY Away - Lincoln Center One Bedroom One Bath,-999.0
270,"196 Grand Street, New York City, NY 10013, United States of America",40.7193945,-73.9967421323846,NobleDEN Hotel,9.1
271,"70 Park Avenue, Murray Hill, New York City, NY 10016, United States of America",nan,nan,Iberostar 70 Park Avenue Hotel,8.3
272,"75 Wall Street, Wall Street - Financial District, New York City, NY 10005, United States of America",nan,nan,Andaz Wall Street - A Hyatt Hotel,8.7
273,"37 West 24th Street, Chelsea, New York City, NY 10010, United States of America",nan,nan,Wyndham Garden Hotel Manhattan Chelsea West,7.7
274,"318 West 51st Street, Hell's Kitchen, New York City, NY 10019, United States of America",40.76316345,-73.98678443012,Washington Jefferson at Times Square,7.8
275,"815 Avenue of the Americas, Chelsea, New York City, NY 10001, United States of America",40.736032,-73.9978049,Hyatt House New York/Chelsea,-999.0
276,"40 West 40th Street, New York City, NY 10018, United States of America",40.7528779,-73.9837786,Bryant Park Hotel,9.1
277,"80 Columbus Circle, Hell's Kitchen, New York City, NY 10023, United States of America",nan,nan,Mandarin Oriental New York,8.6
278,"325 West 33rd Street , Hell's Kitchen, New York City, NY 10001, United States of America",nan,nan,Fairfield Inn & Suites by Marriott New York Midtown Manhattan/Penn Station,8.7
279,"180 Tenth Avenue, Chelsea, New York City, NY 10011, United States of America",nan,nan,The High Line Hotel,8.6
280,"243 West 55th Street, New York City, NY 10019, United States of America",40.7652863,-73.9828353804021,Moderne Hotel,8.2
281,"70 Pine Street, Wall Street - Financial District, New York City, NY 10005, United States of America",nan,nan,Q&A Residential Hotel,9.2
282,"1295 Madison Avenue, Upper East Side, New York City, NY 10128, United States of America",40.780173,-73.9593109,Hotel Wales,8.0
283,"15 West 45th Street, New York City, NY 10036, United States of America",40.75593685,-73.9801993115157,Holiday Inn Express Times Square - Fifth Avenue,7.6
284,"32 East 3rd Street, East Village, New York City, NY 10003, United States of America",nan,nan,East Village Apartments,9.2
285,"303 West 30 Street, Hell's Kitchen, New York City, NY 10001, United States of America",nan,nan,Manhattan West Hotel,7.1
286,"West 42nd Street & 11th Avenue, Hell's Kitchen, New York City, NY 10036, United States of America",nan,nan,La Casa De Mis Primos ADAM,-999.0
287,"299 Madison Avenue, Murray Hill, New York City, NY 10017, United States of America",40.7521252,-73.9794049,Library Hotel,9.3
288,"811 7th Avenue, 53rd Street, New York City, NY 10019 , United States of America",nan,nan,Sheraton New York Times Square Hotel,7.6
289,"500 East 62nd Street, Upper East Side, New York City, 10065, United States of America",40.7602762,-73.9581436,Bentley Hotel,7.5
290,"131 West 23rd Street, Chelsea, New York City, NY 10011, United States of America",40.744099,-73.9956449,The Townhouse Inn of Chelsea,8.9
291,"605 West 42nd Street, Hell's Kitchen, New York City, NY 10036, United States of America",40.7609968367347,-73.9985044285714,Global Luxury Suites at Sky,-999.0
292,"103 East 29th Street, New York City, NY 10016, United States of America",nan,nan,Hotel Deauville,7.3
293,"346 West 46th Street, Hell's Kitchen, New York City, NY 10036, United States of America",40.76022175,-73.9898171891504,The French Quarters,9.3
294,"431 Broome Street, SoHo, New York City, NY 10013, United States of America",40.7213679,-73.9993430029065,The Broome,9.2
295,"136 Ludlow Street, Lower East Side, New York City, NY 10002, United States of America",nan,nan,Redford Hotel,6.7
296,"95 Wall Street, Wall Street - Financial District, New York City, 10005, United States of America",nan,nan,NY Away - Financial District 2-Bedrooms - 608,-999.0
297,"27 Barclay Street, Tribeca, New York City, NY 10007, United States of America",40.712502047619,-74.0089811904762,Four Seasons Hotel New York Downtown,9.1
298,"442 West 36th Street, Hell's Kitchen, New York City, NY 10018, United States of America",40.75528185,-73.9973505383099,Hudson River Hotel,7.1
299,"790 Eighth Avenue, New York City, NY 10019, United States of America",nan,nan,Hilton Garden Inn Times Square,8.4
300,"Elderidge Street and East Broadway, Chinatown, New York City, 10002, United States of America",nan,nan,Charming 2 Bedroom in the heart of Chinatown,7.0
301,"114 East 32nd Street, New York City, NY 10016, United States of America",nan,nan,The Marmara Park Avenue,9.2
302,"37 East 64 Street, Upper East Side, New York City, NY 10065, United States of America",nan,nan,Hôtel Plaza Athénée,8.7
303,"501 Lexington Avenue, Midtown East, New York City, NY 10017, United States of America",nan,nan,Roger Smith Hotel,8.3
304,"150 E. 34th Street, Kips Bay, New York City, NY 10016, United States of America",nan,nan,Dumont NYC-an Affinia hotel,8.2
305,"234 West 42nd Street, New York City, NY 10036, United States of America",40.7564416,-73.9884359,Hilton Times Square,8.6
306,"15 Gold Street, Wall Street - Financial District, New York City, NY 10038, United States of America",nan,nan,Gild Hall - A Thompson Hotel,8.9
307,"149 East 39th Street, Murray Hill, New York City, NY 10016, United States of America",nan,nan,Murray Hill East Suites,8.4
308,"12 West 44th Street, New York City, NY 10036, United States of America",40.75503955,-73.9810941178419,The Mansfield Hotel,7.3
309,"133 West 44th Street, New York City, NY 10036, United States of America",40.7568738,-73.9843966294249,The Premier Hotel New York,8.4
310,"164 East 87th Street, Upper East Side, New York City, NY 10128, United States of America",40.7798475384615,-73.9545481153846,The Franklin Hotel,7.7
311,"201 Park Avenue South, New York City, NY 10003, United States of America",nan,nan,W New York - Union Square,8.3
312,"120 Allen Street, Lower East Side, New York City, NY 10002, United States of America",nan,nan,Sago Hotel,8.8
313,"538 West 58th Street, Hell's Kitchen, New York City, NY 10019, United States of America",40.7708284516129,-73.9907574193548,Fairfield Inn & Suites by Marriott New York Manhattan/Central Park,8.7
314,"39 Avenue of the Americas, Tribeca, New York City, NY 10013, United States of America",40.7191803636364,-74.0052848181818,Hilton Garden Inn New York/Tribeca,8.3
315,"343 West 16th Street, Chelsea, New York City, NY 10011, United States of America",40.7419808,-74.0032188165627,Great apartment in Chelsea,-999.0
316,"160 Bleecker Street, Greenwich Village, New York City, NY 10012, United States of America",40.7298969,-74.00223,Greenwich Village Two Bedroom Apartment,8.9
317,"108 West 24th Street, Chelsea, New York City, NY 10011, United States of America",40.74363625,-73.9930939621501,Hampton Inn Manhattan Chelsea,8.5
318,"133 Greenwich Street, Wall Street - Financial District, New York City, NY 10006, United States of America",nan,nan,Courtyard by Marriott New York Downtown Manhattan/World Trade Center Area,-999.0
319,"32 8th Avenue, Greenwich Village, New York City, NY 10014, United States of America",40.7378456,-74.004199792617,Incentra Village House,8.2
320,"400 East 66th Street, Upper East Side, New York City, NY 10065, United States of America",40.7637694,-73.9585238,Global Luxury Suites at The Pearl,-999.0
321,"11 Rivington Street, New York City, NY 10002, United States of America",40.7172188029108,-73.9822860760914,Off SoHo Suites Hotel,7.9
322,"525 Lexington Avenue at 49th Street, Midtown East, New York City, NY 10017, United States of America",nan,nan,New York Marriott East Side,8.0
323,"107 Rivington Street, Lower East Side, New York City, NY 10002, United States of America",nan,nan,Hotel on Rivington,8.4
324,"714 Seventh Avenue, New York City, NY 10036, United States of America",nan,nan,Renaissance New York Times Square Hotel,8.4
325,"116 West 31st Street, Chelsea, New York City, NY 10001, United States of America",40.74805515,-73.9901796561305,Hampton Inn Madison Square Garden,8.5
326,"120 Lafayette Street, SoHo, New York City, NY 10013, United States of America",nan,nan,City Rooms NYC - SoHo,8.3
327,"25 West 37th St , New York City, NY 10018, United States of America",40.7512066,-73.9846703396114,SpringHill Suites by Marriott New York Midtown Manhattan/Fifth Avenue,8.7
328,"8 Albany Street, Wall Street - Financial District, New York City, NY 10006, United States of America",nan,nan,W New York - Downtown,8.3
329,"276 Canal Street, Chinatown, New York City, NY 10013, United States of America",40.7168256,-73.997753,SoHo Garden Hotel,7.3
330,"401 East 60th Street, Upper East Side, New York City, NY 10022, United States of America",40.7602918,-73.9610477,Global Luxury Suites at Bridge Tower Place,-999.0
331,"West 28th Street & Park Avenue, New York City, NY 10016, United States of America",nan,nan,Central Affordable Three Bedroom Apartment,-999.0
332,"196A Stanton Street, Lower East Side, New York City, NY 10002, United States of America",nan,nan,Sanctuary NYC Retreats,8.4
333,"33 Peck Slip, Wall Street - Financial District, New York City, NY 10038, United States of America",nan,nan,Best Western Plus Seaport Inn Downtown,8.2
334,"350 West 40th Street   , Hell's Kitchen, New York City, NY 10018, United States of America",40.7590428,-73.9980914,Doubletree By Hilton New York Times Square West,-999.0
335,"52 Mulberry Street, Chinatown, New York City, NY 10013, United States of America",nan,nan,Hotel Mulberry,8.6
336,"151 East Houston Street, New York City, NY 10002, United States of America",nan,nan,Hotel East Houston,8.2
337,"102 Greenwich Street, Wall Street - Financial District, New York City, NY 10006, United States of America",nan,nan,RIFF Downtown,7.7
338,"541 Lexington Avenue, Midtown East, New York City, NY 10022, United States of America",nan,nan,W New York,7.5
339,"145 East 50th Street, Midtown East, New York City, NY 10022, United States of America",nan,nan,The Kimberly Hotel & Suites,9.0
340,"146 West 46th Street Apartment 3A, New York City, NY 10036, United States of America",nan,nan,Times Square Studio 46,8.9
341,"687 Lexington Avenue, Midtown East, New York City, NY 10022, United States of America",nan,nan,Fitzpatrick Manhattan,8.8
342,"51 Nassau Street, Wall Street - Financial District, New York City, NY 10038, United States of America",nan,nan,Holiday Inn Wall Street,7.8
343,"130 West 44th Street, New York City, NY 10036, United States of America",40.7564397,-73.9846259944322,"The Chatwal, a Luxury Collection Hotel, New York City",9.0
344,"585 8th Avenue, Hell's Kitchen, New York City, NY 10018, United States of America",nan,nan,Holiday Inn New York City - Times Square,8.3
345,"518 West 27th Street, Chelsea, New York City, NY 10001, United States of America",40.7503948163265,-74.0029973877551,Hotel Americano,7.9
346,"777 Sixth Avenue, Chelsea, New York City, 10001, United States of America",nan,nan,Furnished Quarters at 777 Sixth Avenue,-999.0
347,"90 Washington Street, Wall Street - Financial District, New York City, NY 10006, United States of America",nan,nan,Global Luxury Suites at 90 Washington,-999.0
348,"38 West 31 street, New York City, 10001, United States of America",40.749101,-73.9920059,Studios Midtown Manhattan,8.2
349,"West 80th Street & Amsterdam Avenue, Upper West Side, New York City, NY 10024, United States of America",nan,nan,Upper West Side Duplex,-999.0
350,"3 West 51st Street, New York City, NY 10019, United States of America",40.759542,-73.9773449,3 West Club,7.9
351,"130 Duane Street, Tribeca, New York City, NY 10013, United States of America",40.7167559,-74.0084845,Duane Street Hotel Tribeca,8.6
352,"152 West 26th Street, Chelsea, New York City, NY 10001, United States of America",40.745629,-73.9937462,Hilton New York Fashion District,8.3
353,"80 Riverside Drive, Upper West Side, New York City, NY 10024, United States of America",40.78560985,-73.9817051302222,Riverside Tower Hotel,7.2
354,"212 East 42nd Street, Murray Hill, New York City, NY 10017, United States of America",40.7514557,-73.9760253,Westin New York Grand Central,8.3
355,"356 west 39th street, Hell's Kitchen, New York City, 10018, United States of America",40.7569544,-73.9951051,3 Bedroom modern apartment - Times Square,-999.0
356,"308 East 38th Street, Murray Hill, New York City, NY 10016, United States of America",nan,nan,Global Luxury Suites at The Montrose,-999.0
357,"308 E 38th St, Murray Hill, New York City, 10016, United States of America",40.746928,-73.973387,Murray Hill 2Beds 2Baths,-999.0
358,"21 East 52nd Street, Midtown East, New York City, NY 10022, United States of America",nan,nan,Omni Berkshire Place,8.5
359,"235 West 48th Street, New York City, NY 10036, United States of America",40.7607945,-73.9860591,Global Luxury Suites at Ritz Plaza,-999.0
360,"250 East 50th Street, Midtown East, New York City, NY 10022, United States of America",nan,nan,Midtown Lodging,7.7
361,"224 East 47th Street, Midtown East, New York City, NY 10017, United States of America",nan,nan,Vanderbilt YMCA,7.2
362,"1234 Broadway, New York City, NY 10001, United States of America",40.7473551,-73.988184,Macy31 1 Bedroom Apartment Chelsea Manhattan,6.8
363,"15 East 17th Street, New York City, NY 10003, United States of America",nan,nan,Four Bedroom Apartment - Union Square,-999.0
364,"304 East 42nd Street, Murray Hill, New York City, NY 10017, United States of America",40.7514557,-73.9760253,Hilton Manhattan East,7.5
365,"Two East 55th Street at Fifth Avenue, Midtown East, New York City, NY 10022, United States of America",nan,nan,St. Regis New York,8.9
366,"239 Third Avenue, Gramercy, New York City, NY 10003, United States of America",nan,nan,Two Bedroom Apartment - Murray Hill,-999.0
367,"20 Exchange Place, Wall Street - Financial District, New York City, NY 10005, United States of America",nan,nan,20 Exchange Place,-999.0
368,"246 Spring Street, SoHo, New York City, NY 10013, United States of America",40.722663,-73.9979799,Jet Luxury @ The Trump SoHo,8.6
369,"365 Park Avenue South At 26th St., New York City, NY 10016, United States of America",nan,nan,Hotel Giraffe,9.3
370,"2 Ave and 55th Street, Midtown East, New York City, NY 10022, United States of America",nan,nan,East Side 3 bedroom 2 bathroom (7),-999.0
371,"317 West 14th Street, Chelsea, New York City, NY 10014, United States of America",40.74036855,-74.0033649,Chelsea Pines Inn,8.8
372,"East 36th & 5th Ave, New York City, 10016, United States of America",nan,nan,Stunning Apartment with Spectacular Views Near 5th Ave,-999.0
373,"East 53rd Street & 3rd Avenue, Midtown East, New York City, NY 10022, United States of America",nan,nan,Renovated Two Bedroom Apartment Midtown East,-999.0
374,"404 West 51st Street, Hell's Kitchen, New York City, NY 10009, United States of America",nan,nan,Manhattan Lodging,5.6
375,"337 West 39th Street, Hell's Kitchen, New York City, NY 10018, United States of America",40.7569544,-73.9951051,Hampton Inn Manhattan - Times Square South,8.3
376,"235 West 56th Street, New York City, NY 10019, United States of America",40.7658332,-73.9825996,Symphony House,-999.0
377,"725 Tenth Avenue, Hell's Kitchen, New York City, NY 10019, United States of America",nan,nan,The Skyline Hotel New York,7.7
378,"11th Ave and 42nd Street, Hell's Kitchen, New York City, NY 10036, United States of America",nan,nan,La Casa De Mis Primos GABRIEL,9.1
379,"332 West 23rd Street, Chelsea, New York City, NY 10011, United States of America",40.745628,-73.9998855,Leo House,8.0
380,"401 East 34th Street, New York City, 10016, United States of America",40.7436487,-73.9727083,NY Away - Murray Hill 2 -Bedroom - N12M,-999.0
381,"350 west 43rd street, Hell's Kitchen, New York City, 10036, United States of America",40.7585466,-73.9912569071728,Ivy Tower,-999.0
382,"160 West 56th Street, New York City, NY 10019, United States of America",40.76446715,-73.9801293466819,Carnegie Hotel,-999.0
383,"West 52 Street and 10th Avenue, Hell's Kitchen, New York City, NY 10019, United States of America",nan,nan,Midtown West 4 bed 2 bath,-999.0
384,"45 West 35th Street, New York City, NY 10001, United States of America",40.754886,-73.9977808,Hotel Metro,8.6
385,"1015 6th Avenue, New York City, NY 10018, United States of America",40.75226255,-73.9863116,TEN15NYC,8.3
386,"154 Madison Street, New York City, NY 10002, United States of America",40.713402,-73.9821571,Comfort Inn Lower East Side,7.9
387,"38 West 31st Street, New York City, NY 10001, United States of America",40.7522409,-73.9994661,Midtown Suite New York,6.2
388,"5 Allen Street, Chinatown, New York City, 10002, United States of America",40.7147307,-73.9930412,Hotel Richland New York,-999.0
389,"141 East 44th Street, Midtown East, New York City, NY 10017, United States of America",nan,nan,Fitzpatrick Grand Central,8.7
390,"61-63 Chrystie Street, Chinatown, New York City, NY 10002, United States of America",nan,nan,Comfort Inn Manhattan Bridge,7.6
391,"226 West 50th Street, New York City, NY 10019, United States of America",40.7616211,-73.9851985046091,Amsterdam Court Hotel,7.2
392,"95 Henry Street, Chinatown, New York City, NY 10002, United States of America",nan,nan,Fairfield Inn & Suites New York Manhattan/Downtown East,8.4
393,"31 East 31 Street, New York City, NY 10016, United States of America",nan,nan,Luxury Three Bedroom Apartment on Park Ave & 31st Street - Midtown East,8.0
394,"32nd Street & Third Ave, Kips Bay, New York City, NY 10019, United States of America",nan,nan,The Gotham - Corporate Apartment,-999.0
395,"488 7th Avenue, New York City, NY 10018, United States of America",40.7525415,-73.9897208,Fantastic Luxurious One Bedroom - Near Macy's/MS Garden/Empire State Building,-999.0
396,"781 5th Avenue, New York City, NY 10022, United States of America",40.7643866,-73.9727049,The Sherry Netherland,9.3
397,"343 West 44th Street, Hell's Kitchen, New York City, NY 10034, United States of America",nan,nan,Comfort Inn Times Square West,8.2
398,"209 West 87 Street, Upper West Side, New York City, NY 10024, United States of America",nan,nan,Belnord Hotel,7.6
399,"200 West 56th Street, New York City, NY 10019, United States of America",40.7649849,-73.9811047,The Manhattan Club,8.2
400,"244 West 56th street, New York City, NY 10019, United States of America",40.7656207,-73.9830133024271,Da Vinci Hotel,7.7
401,"130 East 57th Street, Midtown East, New York City, NY 10022, United States of America",nan,nan,Renaissance New York Hotel 57,7.9
402,"410 East 92nd Street, Upper East Side, New York City, NY 10128, United States of America",40.7803043,-73.9460945,Courtyard New York Manhattan/Upper East Side,8.1
403,"East 36th & 5th Ave, Murray Hill, New York City, 10016, United States of America",nan,nan,Apartment with stunning views near 5th Ave,-999.0
404,"32 Pearl Street, Wall Street - Financial District, New York City, NY 10004, United States of America",nan,nan,Hampton Inn Manhattan/Downtown- Financial District,8.4
405,"548 West 48th Street, Hell's Kitchen, New York City, NY 10036, United States of America",40.7641556,-73.9949566584972,Comfort Inn Midtown West,7.6
406,"50 Central Park South, New York City, NY 10019, United States of America",40.7651799,-73.9760101125474,"The Ritz-Carlton New York, Central Park",8.6
407,"250 West 51st Street, New York City, NY 10019, United States of America",40.7624254489796,-73.9847076938776,Beauty Near Times Square,-999.0
408,"38 West 31 Street, New York City, NY 10001, United States of America",40.749101,-73.9920059,Macy31 1 Bedroom Apartment Manhattan,6.3
409,"510 West 52nd street - 17L, Hell's Kitchen, New York City, 10019, United States of America",nan,nan,NY Away - Hells Kitchen/ Times Square 2 Bedroom 17L,-999.0
410,"147 West 43rd Street, New York City, NY 10036, United States of America",40.756498,-73.9853969028717,Casablanca Hotel,9.4
411,"2528 Broadway, Upper West Side, New York City, NY 10025 , United States of America",40.7935439,-73.9722621,Hotel Newton,7.7
412,"85 West Street at Albany Street, Wall Street - Financial District, New York City, NY 10006, United States of America",nan,nan,New York Marriott Downtown,8.4
413,"88 Madison Avenue, New York City, NY 10016, United States of America",nan,nan,"Carlton Hotel, Autograph Collection",7.9
414,"5 West 63rd Street, Upper West Side, New York City, NY 10023, United States of America",40.7709438,-73.9808384,West Side YMCA,7.0
415,"150 Delancey Street, Lower East Side, New York City, NY 10002, United States of America",40.7162008,-73.9817108,Holiday Inn Lower East Side,8.1
416,"152 East 55th Street, Midtown East, New York City, NY 10022, United States of America",nan,nan,Carvi Hotel New York,8.5
417,"10 Hanover Square, Wall Street - Financial District, New York City, 10005, United States of America",nan,nan,NY Away - Financial District 3 Bedrooms - 17E,-999.0
418,"515 West 42nd Street, Hell's Kitchen, New York City, NY 10036, United States of America",40.7598508461538,-73.9957823076923,Travel Inn - Midtown Manhattan,7.4
419,"38 West 31st Street, New York City, NY 10001, United States of America",40.7522409,-73.9994661,Studio Plus - Cozy Apartments,6.7
420,"401 East 57th St, Midtown East, New York City, 10022, United States of America",nan,nan,NY Away - The ideal Family & Friends 4 Bedrooms / 4 Bathrooms in Manhattan,-999.0
421,"508 Canal Street, Tribeca, New York City, NY 10013, United States of America",40.7246872,-74.009708589161,The Canal Park Inn,8.8
422,"229 Chrystie Street, New York City, NY 10002, United States of America",nan,nan,Bridgestreet at the Chrystie,-999.0
423,"510 West 42nd Street, Hell's Kitchen, New York City, NY 10036, United States of America",40.7598451,-73.9963947,The Out NYC,8.2
424,"300 East 39th Street, Murray Hill, New York City, NY 10016, United States of America",nan,nan,Global Luxury Suites at 300 East 39th Street,-999.0
425,"53rd street 349, New York City, NY 10019, United States of America",nan,nan,Ground Floor Studio,8.6
426,"67 Lexington Avenue, Kips Bay, New York City, NY 10010, United States of America",nan,nan,Lex Hotel NYC,8.9
427,"230 East 51st Street, Midtown East, New York City, NY 10022, United States of America",nan,nan,Pod 51,8.0
428,"10 Hanover Square, Wall Street - Financial District, New York City, 10005, United States of America",nan,nan,Financial District at 10 Hanover Square – A Premier Furnished Apartment,-999.0
429,"155 E 29th Street, Kips Bay, New York City, 10016, United States of America",40.7399442,-73.9741091,Kips Bay at Biltmore Plaza – A Premier Furnished Apartment,-999.0
430,"West 4th Street and 6th Avenue, Greenwich Village, New York City, 10014, United States of America",nan,nan,Luxury Apartment - Greenwich Village With Shared Roofdeck & Terrace,8.4
431,"449 West 36th Street, Hell's Kitchen, New York City, NY 10018, United States of America",40.7557951,-73.997491950117,36 Hudson Hotel,7.6
432,"West 37th Street & 5th Avenue, New York City, NY 10018, United States of America",nan,nan,Central Two Bedroom Apartment In Times Square,5.0
433,"777 Sixth Avenue, Chelsea, New York City, NY 10001, United States of America",nan,nan,Global Luxury Suites at 777 6th Avenue,-999.0
434,"Henry Street & Market Street, New York City, NY 10002, United States of America",nan,nan,Renovated 3 Bedroom Loft Manhattan #44,8.0
435,"5 Allen Street, Chinatown, New York City, NY 10002, United States of America",40.7147307,-73.9930412,Howard Johnson SoHo,7.9
436,"250 East 50th Street, Midtown East, New York City, 10022, United States of America",nan,nan,Top Apartments in New York,7.9
437,"West 36th Street & 9th Ave, Hell's Kitchen, New York City, 10018, United States of America",nan,nan,2 Bedroom Apt in Hells' Kitchen,-999.0
438,"38 West 31st Street, New York City, NY 10001, United States of America",40.7522409,-73.9994661,Studio Plus - One-Bedroom APT,6.7
439,"West 34th Street & 10th Ave, Hell's Kitchen, New York City, NY 10001, United States of America",nan,nan,Two Bedroom Apartment- West 34th Street,6.6
440,"155 E 31st Street, Kips Bay, New York City, 10016, United States of America",40.7428392,-73.9771746,Midtown East at Windsor Court – A Premier Furnished Apartment,-999.0
441,"West 64th Street & West End Ave, Upper West Side, New York City, NY 10023, United States of America",nan,nan,Luxurious Doorman Building 2 Bedroom With Gym - Lincoln Center,-999.0
442,"East 38th Street & 2nd Avenue, Murray Hill, New York City, NY 10016, United States of America",nan,nan,Luxury 2BR 2 BATH by Grand Central,-999.0
443,"279 East 44th Street, Midtown East, New York City, NY 10017, United States of America",nan,nan,Global Luxury Suites at Olympia House,-999.0
444,"62 East 127th Street, East Harlem, New York City, NY 10035, United States of America",40.8040762,-73.9326689,M&M and J Guesthouse,8.0
445,"123 East 15th Street, Gramercy, New York City, NY 10003, United States of America",nan,nan,Seafarers International House,7.2
446,"East 52nd Street & 2nd Avenue, Midtown East, New York City, NY 10022, United States of America",nan,nan,Midtown East Studio,6.6
447,"9 South William Street, Wall Street - Financial District, New York City, NY 10004, United States of America",nan,nan,The Wall Street Inn,8.8
448,"West 16th Street and 8th Ave, Chelsea, New York City, NY 10001, United States of America",nan,nan,2BD GARDEN OASIS in West Village!!,-999.0
449,"East 34th Street & Madison Avenue, New York City, NY 10016, United States of America",nan,nan,Two Bedroom Apartment - Madison Avenue,6.6
450,"3rd St and 1st Ave, East Village, New York City, NY 10003, United States of America",nan,nan,East Village Lodging,8.7
451,"650 East 2nd Avenue, Murray Hill, New York City, 10016, United States of America",nan,nan,Great Location Midtown East 35th Street and Third Ave,7.6
452,"46 West 17th Street, Chelsea, New York City, NY 10011, United States of America",40.7387476,-73.9945438,Chelsea Inn,6.7
453,"95 Wall Street, Wall Street - Financial District, New York City, NY 10005, United States of America",nan,nan,Global Luxury Suites at 95 Wall,-999.0
454,"Fifth Avenue at Central Park South, New York City, NY 10019, United States of America",nan,nan,The Plaza,8.8
455,"120 West 21st Street, Chelsea, New York City, 10011, United States of America",40.742006,-73.9948889,Chelsea at 21Chelsea - A Premier Furnished Apartment,-999.0
456,"1600 Broadway, New York City, NY 10019, United States of America",40.7601888,-73.9843526022633,1600 Broadway,-999.0
457,"Columbus Avenue & West 100th Street, Upper West Side, New York City, NY 10025, United States of America",nan,nan,The Ideal 3 Bedroom Getaway by Central Park UWS,-999.0
458,"9th Avenue & West 39th Street, Hell's Kitchen, New York City, NY 10018, United States of America",nan,nan,Three Bedroom Apartment on 9th Avenue,9.8
459,"10 Hanover Square, Wall Street - Financial District, New York City, NY 10005, United States of America",nan,nan,Global Luxury Suites at 10 Hanover Square,-999.0
460,"91 East Broadway, Chinatown, New York City, NY 10002, United States of America",nan,nan,Hotel 91,7.4
461,"158 West 58th Street, New York City, NY 10019, United States of America",40.765823,-73.9788931,Park Savoy Hotel,6.6
462,"273 West 38th Street, New York City, NY 10018, United States of America",40.7544471,-73.9906057,Manhattan Broadway Hotel,6.2
463,"59 West 44th Street, New York City, NY 10036, United States of America",40.7559397,-73.9823469916667,"The Algonquin Hotel Times Square, Autograph Collection",8.5
464,"800 6th Avenue, Chelsea, New York City, NY 10001, United States of America",40.736032,-73.9978049,Global Luxury Suites at 800 6th Avenue,-999.0
465,"38 West 31st Street, New York City, NY 10001, United States of America",40.7522409,-73.9994661,Studio Apartments - West 31st Street,6.6
466,"556 3rd Avenue, Murray Hill, New York City, NY 10016, United States of America",nan,nan,Oakwood Aurora Midtown East,-999.0
467,"116th Street and Lexington Avenue, East Harlem, New York City, NY 10029, United States of America",nan,nan,Shared Two Bedroom Apartment - Harlemville,-999.0
468,"260 West 54th Street, New York City, NY 10019, United States of America",40.7644979,-73.9840216,The Marc,-999.0
469,"940 8th Avenue, New York City, NY 10019, United States of America",40.7656895,-73.9833904,Jazz on Columbus Circle Hostel,8.1
470,"70 West 45th Street, New York City, NY 10036, United States of America",40.7563313,-73.982194400076,Cassa Suites,-999.0
471,"500 West 30th Street, Chelsea, New York City, NY 10001, United States of America",40.7520118,-74.0014383093137,Abington House,-999.0
472,"888 Sixth Avenue, New York City, NY 10001, United States of America",nan,nan,Oakwood 6th Avenue,-999.0
473,"650 East 35th Street, Kips Bay, New York City, NY 10016, United States of America",nan,nan,36th Street Midtown East Luxury Duplex Apartment,-999.0
474,"891 Amsterdam Avenue, Upper West Side, New York City, NY 10025, United States of America",40.79870795,-73.9666254476841,HI NYC Hostel,8.4
475,"38 West 31st Street, New York City, NY 10001, United States of America",40.7522409,-73.9994661,Studio-Plus Apartment,6.6
476,"9th Avenue & 52nd Street , Hell's Kitchen, New York City, NY 10019, United States of America",nan,nan,Cozy Two Bedrooms near Times Sq - NYC,-999.0
477,"95 Wall Street, Wall Street - Financial District, New York City, 10005, United States of America",nan,nan,Financial District at 95 Wall Street – A Premier Furnished Apartment,-999.0
478,"East 11th street & Ave C, East Village, New York City, NY 10009, United States of America",nan,nan,Beautiful Two Bedroom Apartment in East Village,-999.0
479,"235 W 48th Street, New York City, 10036, United States of America",40.7607945,-73.9860591,Times Square at Ritz Plaza – A Premier Furnished Apartment,-999.0
480,"38 W 31st St. , New York City, 10001, United States of America",40.7522409,-73.9994661,Today House,8.5
481,"Malcolm X Blvd & West 123rd Street, Harlem, New York City, NY 10027, United States of America",nan,nan,Two Bedroom Townhouse,8.8
482,"West 46th Street Between 6th and 7th avenue, New York City, NY 10036, United States of America",nan,nan,Studio in Times Square,6.1
483,"250 West 50th Street, New York City, NY 10019, United States of America",40.7618852,-73.9854131,250W50 Midtown West,-999.0
484,"306 West 48th Street, Hell's Kitchen, New York City, NY 10036, United States of America",40.7634284,-73.9927001,Global Luxury Suites at West 48th Street,-999.0
485,"Grand Street & Mott Street, New York City, NY 10013, United States of America",nan,nan,Little Italy Grand,-999.0
486,"250 West 51st Street, New York City, NY 10019, United States of America",40.7624254489796,-73.9847076938776,Times Square Perfect Home,-999.0
487,"235 West 56th Street, New York City, NY 10019, United States of America",40.7658332,-73.9825996,Global Luxury Suites at Symphony House,-999.0
488,"East 55th Street & 2 Ave, Midtown East, New York City, NY 10022, United States of America",nan,nan,Three-Bedroom Apartment with Two Bathrooms - East 55th Street,7.4
489,"38 West 31st Street, New York City, NY 10001, United States of America",40.7522409,-73.9994661,Today House on Broadway,-999.0
490,"38 West 31st Street, New York City, NY 10001, United States of America",40.7522409,-73.9994661,Manhattan Studio Apartments,7.1
491,"38 West 31 Street , New York City, NY 10001, United States of America",40.749101,-73.9920059,Macy31 Loft Studio Chelsea Manhattan,6.4
492,"Varick and West Houston, Greenwich Village, New York City, 10014, United States of America",nan,nan,Modern 2b/1.5 Condo with Outdoor Space,-999.0
493,"East 55th Street & 2nd Avenue, Midtown East, New York City, NY 10022, United States of America",nan,nan,East Side 3 bed 2 bath (6),-999.0
494,"13 East 9th Street, Greenwich Village, New York City, 10003, United States of America",nan,nan,Luxury Apartments Greenwich Village,-999.0
495,"222 East 34th Street, Kips Bay, New York City, NY 10016, United States of America",nan,nan,Anthem,-999.0
496,"East 27th and Park, Chelsea, New York City, 10001, United States of America",nan,nan,Gramercy Park Two Bedroom Apartment,-999.0
497,"West 49th Street & 10th Avenue, Hell's Kitchen, New York City, NY 10019, United States of America",nan,nan,Two-Bedroom Apartment - 10th Avenue,6.7
498,"18 West 48th Street, New York City, NY 10036, United States of America",40.75750575,-73.9793432179079,Centria,-999.0
499,"429 Park Avenue South, New York City, NY 10016, United States of America",nan,nan,Clarion Hotel Park Avenue,7.6
500,"339 West 53rd Street, Hell's Kitchen, New York City, 10019, United States of America",40.7647184489796,-73.9858154897959,Apartment near Times Square,8.9
501,"305 West 50th Street, Hell's Kitchen, New York City, NY 10019, United States of America",40.7625386,-73.9864369,Longacre House,-999.0
502,"Columbus Avenue & West 100th Street, Upper West Side, New York City, NY 10025, United States of America",nan,nan,The Ideal 2 Bedroom Getaway by Central Park UWS,-999.0
503,"355 west 41 street, Hell's Kitchen, New York City, 10036, United States of America",nan,nan,Studio In The Heart of Times Square,-999.0
504,"East 6th Street and 2nd Ave, East Village, New York City, 10003, United States of America",nan,nan,East Village Studio,-999.0
505,"East 34 Street and Park Avenue, New York City, NY 10016, United States of America",nan,nan,Two Bedroom Apartment - East 34th Street,7.3
506,"9th Avenue & West 50th Street, Hell's Kitchen, New York City, NY 10019, United States of America",nan,nan,"Midtown Two-Bedroom Apartment, Times Square West",8.0
507,"600 Washington, Greenwich Village, New York City, 10014, United States of America",nan,nan,Luxury Studio in the West Village,-999.0
508,"53rd street 349, New York City, NY 10019, United States of America",nan,nan,Times Square Studio,9.8
509,"788 Columbus Avenue - 15H, Upper West Side, New York City, 10025, United States of America",nan,nan,NY Away - Central Park UWS 1-Bedroom - 15H,-999.0
510,"Broadway and Amsterdam, Harlem, New York City, 10031, United States of America",nan,nan,Stunning Two Bedroom In The Heart Of The City,-999.0
511,"38 West 31st Street, New York City, 10001, United States of America",40.7522409,-73.9994661,Green Holidays Apartments,7.3
512,"300 West 30th Street, Hell's Kitchen, New York City, NY 10001, United States of America",nan,nan,Riff Hotel Chelsea,6.5
513,"63 West 107th Street, Upper West Side, New York City, 10025, United States of America",40.79975495,-73.9613293308605,Central Park West Two Bedroom Apartment,-999.0
514,"235 West 56th Street, New York City, NY 10019, United States of America",40.7658332,-73.9825996,Midtown West at The Symphony House - A Premier Furnished Apartment,-999.0
515,"302 West 47th Street, Hell's Kitchen, New York City, NY 10036, United States of America",40.7630476,-73.9937379,Econo Lodge Times Square,7.8
516,"3rd Avenue & East 39th Street, Murray Hill, New York City, NY 10016, United States of America",nan,nan,Studio Apartment - 39th Street,-999.0
517,"305 W 50th Street, Hell's Kitchen, New York City, 10019, United States of America",40.7625386,-73.9864369,Times Square at Longacre House – A Premier Furnished Apartment,-999.0
518,"320 Pearl Street, Wall Street - Financial District, New York City, NY 10038, United States of America",nan,nan,Hampton Inn Seaport Financial District,8.0
519,"354 EAST 8 STREET, East Village, New York City, 10009, United States of America",nan,nan,Unique Three Bedrooms with Cozy Backyard,-999.0
520,"37th Street and Second Avenue, Murray Hill, New York City, NY 10016, United States of America",nan,nan,Self-Catering Apartment: East Side,6.7
521,"377 Greenwich Street, Tribeca, New York City, NY 10013, United States of America",40.7198779,-74.0100189,The Greenwich Hotel,9.1
522,"28 East 63rd Street, Upper East Side, New York City, NY 10065, United States of America",40.76568905,-73.9692485968334,Lowell Hotel,9.1
523,"349 53rd street, New York City, 10019, United States of America",nan,nan,Full Studio Near The Central Park,8.1
524,"53rd Street and 9th Avenue, Hell's Kitchen, New York City, NY 10019, United States of America",nan,nan,Apartment in Central New York,7.6
525,"27 Eldridge St, Chinatown, New York City, 10002, United States of America",40.7151449,-73.9936982033575,Four Bedroom Apartment - Eldridge St. #38,7.3
526,"West 26th Street, Chelsea, New York City, NY 10001, United States of America",40.7483636,-73.9998527,Chelsea Loft,-999.0
527,"40th Street and 9th Avenue, Hell's Kitchen, New York City, NY 10005, United States of America",nan,nan,The Clive - Corporate Apartment,-999.0
528,"Harlem, New York City, 10027, United States of America",40.8078786,-73.9454153,Two-Bedroom Apartment New York 3,-999.0
529,"Harlem, New York City, 10027, United States of America",40.8078786,-73.9454153,Two-Bedroom Apartment New York 2,-999.0
530,"306 West 94th St, Upper West Side, New York City, 10025, United States of America",40.7940322,-73.9749169911624,Hotel Alexander,-999.0
531,"116th and Lexington, East Harlem, New York City, NY 10029, United States of America",40.792248,-73.9462784,Harlemville Two Bedroom Apt,-999.0
532,"Harlem, New York City, 10027, United States of America",40.8078786,-73.9454153,Two-Bedroom Apartment New York 1,-999.0
533,"West 48th Street & 10th Avenue, Hell's Kitchen, New York City, NY 10036, United States of America",nan,nan,Manhattan Studio in Hells Kitchen,-999.0
534,"538 West 48th Street , Hell's Kitchen, New York City, NY 10036, United States of America",40.7639894,-73.9945640016504,Holiday Inn Express Manhattan Midtown West,8.0
535,"529 W 48th Street, Hell's Kitchen, New York City, NY 10019, United States of America",40.76421685,-73.9940340522727,One-Bedroom Apartment in Hell's Kitchen,7.6
536,"38 West 31 Street   , New York City, NY 10001, United States of America",40.749101,-73.9920059,Studio Plus - Couple's Studio,6.8
537,"1600 Broadway, New York City, NY 10019, United States of America",40.7601888,-73.9843526022633,Bridgestreet at 1600 Broadway,-999.0
538,"233 East 12th Street, East Village, New York City, NY 10003, United States of America",nan,nan,Union Square Best Location 2 Bedroom Apt,-999.0
539,"38 West 31st Street, New York City, NY 10001, United States of America",40.7522409,-73.9994661,Studio Plus - Apartment Suites,6.9
540,"116 John Street, Wall Street - Financial District, New York City, NY 10038, United States of America",nan,nan,116 John Street Apartments,-999.0
541,"West 25 Street and 6 Avenue, Chelsea, New York City, NY 10022, United States of America",nan,nan,Three-Bedroom Apartment West 25th Street,7.3
542,"769 9th Avenue, Hell's Kitchen, New York City, NY 10036, United States of America",40.76457185,-73.9885077527634,Midtown Two Bedroom Apartment - Central Park,5.9
543,"271 West 11 Street, Greenwich Village, New York City, NY 10014, United States of America",nan,nan,271 West 11th Street,-999.0
544,"71 Broadway, Wall Street - Financial District, New York City, 10006, United States of America",nan,nan,Downtown - 71 Broadway – A Premier Furnished Apartment,-999.0
545,"Greenwich Street, SoHo, New York City, NY 10014, United States of America",nan,nan,onefinestay - Greenwich Street V private home,-999.0
546,"West 31st Street & Broadway, New York City, NY 10001, United States of America",nan,nan,The Cozy Apartment,6.3
547,"Harlem, New York City, 10027, United States of America",40.8078786,-73.9454153,Two-Bedroom Apartment New York 4,-999.0
548,"53rd Street and 9th Avenue , Hell's Kitchen, New York City, 10019, United States of America",nan,nan,Full Studio in Central New York,8.7
549,"Chelsea, New York City, 10011, United States of America",40.7464906,-74.0015282,Apartment New York 8817,-999.0
550,"West 48th Street & 8th Avenue, Hell's Kitchen, New York City, NY 10019, United States of America",nan,nan,La Casa De Mis Primos MIKE,-999.0
551,"Harlem, New York City, 10027, United States of America",40.8078786,-73.9454153,One-Bedroom Apartment New York 1,-999.0
552,"414 West 46 Street, Hell's Kitchen, New York City, NY 10036, United States of America",nan,nan,414 Hotel,9.4
553,"205 East 45th Street, Midtown East, New York City, NY 10017, United States of America",nan,nan,Wyndham Midtown 45,7.2
554,"339 West 53rd Street, Hell's Kitchen, New York City, 10019, United States of America",40.7647184489796,-73.9858154897959,Great Full Studio in New York,8.0
555,"311 West 50th Street, Hell's Kitchen, New York City, 10019, United States of America",40.7628087,-73.9870733,Midtown West at The Cameo – A Premier Furnished Apartment,-999.0
556,"W 57th Street & 7th Avenue, New York City, NY 10019, United States of America",nan,nan,CENTRAL PARK ADJACENT LUXURY CITY VIEWS SLEEPS 1-4,-999.0
557,"318 West 22nd Street, Chelsea, New York City, NY 10011, United States of America",40.74485565,-73.999991920504,Colonial House Inn,8.0
558,"38 West 31th Street, New York City, NY 10001, United States of America",nan,nan,Chic Executive Studio,-999.0
559,"160 Central Park South, New York City, 10019, United States of America",40.76617385,-73.9785096893545,Luxurious Central Park South 2 Bedroom Apartment,-999.0
560,"370 8th Avenue, 3-5th Floor, Chelsea, New York City, NY 10001, United States of America",nan,nan,Chelsea Pods,6.8
561,"131 E 27 Street, New York City, 10016, United States of America",nan,nan,Park Ave Apartments Midtown Next to Times Square,7.1
562,"164 West 121 Street, Harlem, New York City, NY 10027, United States of America",nan,nan,Richard's Place,8.3
563,"East 77th & 2nd Ave, Upper East Side, New York City, NY 10075, United States of America",nan,nan,New Modern 3 Bedroom Apartment Near Subway and Central Park,-999.0
564,"280 East 10th Street, East Village, New York City, 10009, United States of America",40.7279825,-73.9830626215843,East Village Properties,-999.0
565,"5th Ave and 45th, Midtown East, New York City, 10017, United States of America",nan,nan,Ultra Modern large One Bedroom,-999.0
566,"790 7th Avenue, New York City, 10019, United States of America",40.7621059,-73.9827545,Executive Class at MTS Hotel,8.1
567,"Midtown East, New York City, 10022, United States of America",nan,nan,Apartment New York 2,-999.0
568,"233 East 12 Street, East Village, New York City, NY 10003, United States of America",nan,nan,Best Location NYC in Union Square - Midtown East,7.2
569,"104 Lexington Avenue, New York City, 10016, United States of America",40.74233315,-73.9830479253846,Mid Town East 28th Street Apartments Next to Times Square,6.9
570,"795 Columbus Avenue - 12E, Upper West Side, New York City, 10025, United States of America",nan,nan,NY Away - Central Park Upper West Side Luxury 1 Bedroom 12E,-999.0
571,"225 West 134th Street, Harlem, New York City, NY 10030, United States of America",40.8152214,-73.9451412855498,The Gadson Gallery Guest House (Harlem),-999.0
572,"Gramercy, New York City, 10003, United States of America",40.7379303,-73.9859249,Holiday Home New York 8816,-999.0
573,"10th Avenue and West 50th Street, Hell's Kitchen, New York City, NY 10019, United States of America",nan,nan,La Casa de Mis Primos Arisa,8.7
574,"West 31st Street & Broadway, New York City, NY 10001, United States of America",nan,nan,The Lovers Apartment,6.6
575,"2nd Ave East 55 Street, Midtown East, New York City, 10022, United States of America",nan,nan,East Side 3 Bedroom and 2 Bathroom Apartment (3),-999.0
576,"West 80th Street & Amsterdam Avenue, Upper West Side, New York City, NY 10024, United States of America",nan,nan,Three Bedroom Apartment - Upper West Side,-999.0
577,"9th Avenue and 38th Street, Hell's Kitchen, New York City, NY 10018, United States of America",nan,nan,Times Square West One Bedroom Apartment,-999.0
578,"302 East 45th Street, Midtown East, New York City, NY 10017, United States of America",nan,nan,United Nations Apartment Hotel,6.4
579,"31st Street & Park Avenue, New York City, NY 10016, United States of America",nan,nan,Studio Apartment - East 31st Street #30,7.3
580,"514 West 168th Street, Washington Heights, New York City, 10032, United States of America",40.8399272857143,-73.9372747142857,Edge Hotel Washington Heights,8.5
581,"Harlem, New York City, 10030, United States of America",40.8078786,-73.9454153,One-Bedroom Apartment New York 2,-999.0
582,"417 East 57th Street, Midtown East, New York City, NY 10022, United States of America",nan,nan,Sutton Court Hotel Residences,-999.0
583,"9 West 120th Street, Harlem, New York City, NY 10027, United States of America",40.8043137,-73.94668895,Historic Harlem Duplex,8.7
584,"110 West 81st Street  , Upper West Side, New York City, NY 10024, United States of America",40.78337295,-73.9752410541237,Brownstone Bed and No Breakfast,7.3
585,"451 West 36th Street, Hell's Kitchen, New York City, NY 10018, United States of America",40.7558212,-73.9975765805733,Times Square Amazing 2 Bedroom,-999.0
586,"514 West 136th Street, Harlem, New York City, NY 10031, United States of America",nan,nan,Hamilton Heights: Renovated 3 Bedroom,-999.0
587,"102 Allen Street, Lower East Side, New York City, NY 10002, United States of America",nan,nan,One Bedroom Apartment - Allen Street # 28,7.7
588,"West 148th Street, Harlem, New York City, 10031, United States of America",nan,nan,Luxurious Three Bedroom Apartment,6.1
589,"Lexington Avenue & 28th Street, New York City, NY 10016, United States of America",nan,nan,Two Bedroom Apartment - Between Park Ave & Lexington Avenue - Midtown East,7.6
590,"349 West 53rd Street, Hell's Kitchen, New York City, NY 10019, United States of America",40.76515205,-73.9867033323171,Central Park Apartment with Backyard,10.0
591,"Midtown East, New York City, 10022, United States of America",nan,nan,Apartment New York 3,-999.0
592,"Upper West Side, New York City, 10023, United States of America",40.7750661,-73.982668501242,Apartment New York 8815,-999.0
593,"30 East 31st STREET, New York City, 10016, United States of America",40.7454579,-73.9839375432977,Madison Avenue Luxury Two Bedroom Apartments Next to Times Square,7.4
594,"95 Wall Street, Wall Street - Financial District, New York City, NY 10005, United States of America",nan,nan,Studio Apartment Wall Street,-999.0
595,"30 East 130th Street, East Harlem, New York City, NY 10037, United States of America",nan,nan,NY Away - Your Private Home in NYC,-999.0
596,"17 East 67th Street, Upper East Side, New York City, 10065, United States of America",40.76893865,-73.96806945248,Studio between 5th Ave and Madison,8.0
597,"235 West 48th Street, New York City, NY 10036, United States of America",40.7607945,-73.9860591,Ritz Plaza,-999.0
598,"Various locations in Midtown, New York, New York City, NY 10016, United States of America",nan,nan,onefinestay - Midtown private homes,-999.0
599,"1335 Avenue of the Americas, New York City, NY 10019, United States of America",40.76246105,-73.9797140246276,Hilton Club New York,8.3
600,"York Avenue & East 79th Street, Upper East Side, New York City, NY 10075, United States of America",nan,nan,Sunny Studio in the heart of the Upper East Side,-999.0
601,"Midtown East, New York City, 10022, United States of America",nan,nan,Apartment New York 4,-999.0
602,"368 8th Avenue, Chelsea, New York City, NY 10001, United States of America",40.7486256,-73.9957908,City Rooms NYC - Chelsea,8.3
603,"301 East 94th Street, Upper East Side, New York City, NY 10128, United States of America",40.7829626,-73.9477013,The Marmara Manhattan,7.8
604,"109 West 45th Street, New York City, NY 10036, United States of America",40.75720905,-73.9831852268214,Hotel St. James,8.0
605,"Midtown East, New York City, 10022, United States of America",nan,nan,Apartment New York 5,-999.0
606,"West 148th Street & Broadway, Harlem, New York City, NY 10031, United States of America",nan,nan,Three Bedroom Apartment - West 148th Street,-999.0
607,"Midtown East, New York City, 10022, United States of America",nan,nan,Apartment New York 1,-999.0
608,"225 East 17 Street, Gramercy, New York City, NY 10003, United States of America",nan,nan,Hotel 17,7.9
609,"Various locations in Downtown West, New York, Chelsea, New York City, NY 10011, United States of America",nan,nan,onefinestay – Downtown West private homes,8.4
610,"160 Central Park South, New York City, 10019, United States of America",40.76617385,-73.9785096893545,Magnificent Central Park South One Bedroom Apartment,-999.0
611,"313 West 136th Street, Harlem, New York City, NY 10030, United States of America",40.81762235,-73.946667335188,Allie's Inn Bed and Breakfast,8.7
612,"West End Avenue & West 64th Street, Upper West Side, New York City, NY 10023, United States of America",nan,nan,"Luxurious Superior Two Bedroom Apartment wih Gym, Doorman, Lincoln Center",-999.0
613,"Canal Street & Mulberry Street, Chinatown, New York City, NY 10013, United States of America",nan,nan,The Baxter House (sleeps 6),6.7
614,"Washington Street & Rector Street, Wall Street - Financial District, New York City, NY 10006, United States of America",nan,nan,La Casa de Mis Primos NOE,8.8
615,"Maiden Lane & Broadway, Wall Street - Financial District, New York City, NY 10038, United States of America",nan,nan,PermaGO FiDi,8.5
616,"West 51 Street & 9 Avenue, Hell's Kitchen, New York City, 10019, United States of America",nan,nan,Times Square Suites - NYC,-999.0
617,"West 51st Street & 8th Avenue, Hell's Kitchen, New York City, NY 10019, United States of America",nan,nan,La Casa De Mis Primos DAN,-999.0
618,"345 West 53rd Street, New York City, NY 10019, United States of America",40.76510405,-73.98658035,Apartment Best Location in New York,9.0
619,"Lexington Avennue & East 28th Street, New York City, NY 10016, United States of America",nan,nan,Best Location Midtown East,-999.0
620,"16th Street & 1st Ave, New York City, 10009, United States of America",nan,nan,Spacious 2 Bedroom in the Heart of Manhattan,-999.0
621,"East 13th Street and Avenue A, East Village, New York City, NY 10009, United States of America",nan,nan,Three Bedroom East Village Bungalow,-999.0
622,"53rd street 349, New York City, 10019, United States of America",nan,nan,Full Apartment in the Heart of New York,9.4
623,"25th st and 6th ave, New York City, 10011, United States of America",nan,nan,NYC Apartment,-999.0
624,"Lenox Avenue and 123rd Street, Harlem, New York City, NY 10027, United States of America",nan,nan,Luxury Living Suites,5.9
625,"113 Jane Street, Greenwich Village, New York City, NY 10014, United States of America",40.7383282,-74.0093218469947,The Jane,7.9
626,"350 East 62nd Street, Upper East Side, New York City, NY 10065, United States of America",40.7616488,-73.961245,Amazing Studio near Central Park,6.9
627,"250 West 50th Street, New York City, NY 10019, United States of America",40.7618852,-73.9854131,One Bedroom Apartment Near Times Square,-999.0
628,"Allen Street & Delancey Street, New York City, NY 10013, United States of America",nan,nan,The Allen House (sleeps 5),7.0
629,"West 50th and 10th Ave, Hell's Kitchen, New York City, 10019, United States of America",nan,nan,Hip and Trendy 3 Bedroom Near Times Square,-999.0
630,"9 E 7th St, East Village, New York City, 10023, United States of America",nan,nan,Charming Studio in East Village,6.8
631,"West 74th Street, Columbus and Central Park West, Upper West Side, New York City, NY 10023, United States of America",nan,nan,The Rio Hostel and Hotel on Central Park,6.7
632,"83 Mott Street, Chinatown, New York City, 10013, United States of America",40.7166348,-73.9979942,One Bedroom Apartment - Mott Street #16,7.9
633,"150 West 51st Street, New York City, NY 10019, United States of America",40.7614359,-73.9823919,Great one Bedroom in Time Square,-999.0
634,"Lexington Avenue & 28th Street, New York City, NY 10016, United States of America",nan,nan,Two Bedroom Apartment - Midtown East,7.3
635,"108 Forsyth Street, New York City, NY 10002, United States of America",40.7186237,-73.9925489013016,Windsor Hotel,6.2
636,"West 48th Street and 9th Avenue, Hell's Kitchen, New York City, NY 10024, United States of America",nan,nan,One Bedroom Apartment - Midtown Manhattan Hells Kitchen,-999.0
637,"465 Central Park West, Upper West Side, New York City, NY 10025, United States of America",40.7985256,-73.9599346828198,Astor on the Park,6.4
638,"36 West 106 Street, Upper West Side, New York City, NY 10025, United States of America",nan,nan,Jazz on the Park Youth Hostel,6.5
639,"Lincoln Center Vicinity, Upper West Side, New York City, NY 10023, United States of America",nan,nan,Apartments Lincoln Center,7.8
640,"275 Broome Street, New York City, NY 10002, United States of America",40.715378,-73.9811699,Broome Street Apartment - Lower East Side #19,6.9
641,"East 13th Street and Avenue A, East Village, New York City, NY 10009, United States of America",nan,nan,NYC Perfect Retreat in East Village Two Bedroom,-999.0
642,"242 West 49th Street, New York City, NY 10019, United States of America",40.7611635,-73.9859804284334,Mayfair New York Times Square,7.3
643,"105 West 118th Street, Harlem, New York City, NY 10026, United States of America",40.80376615,-73.9492802306838,Home NYC,9.6
644,"258 W 97th Street, Upper West Side, New York City, NY 10025, United States of America",40.7955859,-73.9722457,Royal Park Hotel & Hostel,6.6
645,"756 Washington Street, Greenwich Village, New York City, NY 10014, United States of America",40.73710245,-74.0084916483419,Highline West Village,-999.0
646,"Various locations in Downtown West, New York, Chelsea, New York City, NY 10011, United States of America",nan,nan,onefinestay – Downtown West private homes II,-999.0
647,"60 Henry Street, New York City, 10002, United States of America",40.7128276,-73.9948774,Three Bedroom Apartment - Henry Street #41,8.7
648,"Midtown East, New York City, 10022, United States of America",nan,nan,Aparthotel New York 8880,-999.0
649,"69 West 38th Street, New York City, NY 10018, United States of America",40.7522336,-73.9855081,Americana Inn,7.4
650,"1876 3rd Avenue, East Harlem, New York City, NY 10029, United States of America",nan,nan,Upper Yorkville Apartments,7.7
651,"180 East 108th Street, East Harlem, New York City, NY 10029, United States of America",40.7929366,-73.9443340023622,Jenny's Apartments - Upper East Side,-999.0
652,"102 West 57th Street, New York City, NY 10019, United States of America",40.7643797,-73.977927837844,West 57th Street by Hilton Club,9.3
653,"106 West 120th Street, Harlem, New York City, NY 10027, United States of America",40.8047139,-73.948567,Efuru Guest House,8.2
654,"Various Locations in Midtown East, Midtown East, New York City, NY 10022, United States of America",nan,nan,Superior Midtown East Apartments,5.6
655,"East 58th Street & 3rd Avenue, Midtown East, New York City, NY 10022, United States of America",nan,nan,Midtown East Apartment,-999.0
656,"120 East 31 Street, New York City, NY 10016, United States of America",nan,nan,Hotel 31,8.0
657,"Delancey Street & Allen Street, New York City, NY 10002, United States of America",nan,nan,Sunny Three Bedroom Apartment Lower East Side,-999.0
658,"Various locations in Downtown East, New York, East Village, New York City, 10009, United States of America",nan,nan,onefinestay – Downtown East private homes II,-999.0
659,"219 Avenue A, East Village, New York City, NY 10009, United States of America",40.73016495,-73.9808032515786,East Village: Newly Renovated 2 Bedroom,-999.0
660,"953 Columbus Ave, Upper West Side, New York City, 10025, United States of America",40.7996425,-73.9622328800324,1BD Apartment near Central Park,6.0
661,"East 2nd Street and 1st Avenue, Lower East Side, New York City, NY 10002, United States of America",nan,nan,Large Three Bedroom Apartment - NYC,-999.0
662,"221 East 44th Street, Midtown East, New York City, NY 10017, United States of America",nan,nan,EVEN Hotel New York - Midtown East 44th,-999.0
663,"102 Lexington Ave, New York City, NY 10016, United States of America",40.7422451,-73.9829765,Midtown East Next to Times Square,-999.0
664,"Harlem, New York City, 10030, United States of America",40.8078786,-73.9454153,Apartment New York 8845,-999.0
665,"135 West 112th Street 4B, Harlem, New York City, NY 10026, United States of America",nan,nan,Central Park North,8.0
666,"514 West 136th Street, Harlem, New York City, NY 10031, United States of America",nan,nan,Hamilton Heights Lovely 2 Bedroom,-999.0
667,"Thompson Street & West Houston Street, SoHo, New York City, NY 10012, United States of America",nan,nan,One Bedroom- Village Apartment,-999.0
668,"Water Street & Maiden Lane, Wall Street - Financial District, New York City, NY 10005, United States of America",nan,nan,Financial District Studio Apartment,6.7
669,"488 Seventh Avenue, New York City, NY 10018, United States of America",nan,nan,Ultra Luxurious Studio - Near Macy's & Empire State Building,-999.0
670,"180 West 135th Street, Harlem, New York City, NY 10030, United States of America",40.81469725,-73.9429794616351,Harlem YMCA,7.3
671,"West 137th Street & Frederick Douglass Blvd, Harlem, New York City, NY 10030, United States of America",nan,nan,The Gallery House,8.3
672,"Various Locations on Upper East Side, Upper East Side, New York City, NY 10128, United States of America",nan,nan,Yorkville Apartments -Upper East Side,6.1
673,"Eats 52 Street & 2nd avenue, Midtown East, New York City, NY 10022, United States of America",nan,nan,NYC Best apartment near the UN,5.9
674,"38 West 31th Street 214, New York City, NY 10010, United States of America",nan,nan,Charming Studio,-999.0
675,"West 4th & Charles, Greenwich Village, New York City, 10014, United States of America",nan,nan,West Village Charm,-999.0
676,"Various Locations in Downtown East, New York, East Village, New York City, NY 10003, United States of America",nan,nan,onefinestay – Downtown East private homes,8.3
677,"58 Henry Street, New York City, 10002, United States of America",40.7127294,-73.9950601599147,Two-Bedroom Apartment - Henry Street #42,8.2
678,"West 54th Street & 10th Avenue, Hell's Kitchen, New York City, NY 10019, United States of America",nan,nan,La Casa De Mis Primos ROSY,-999.0
679,"248 Lenox Avenue , Harlem, New York City, NY 10027, United States of America",nan,nan,The International Cozy Inn,7.1
680,"144 West 120th Street, Harlem, New York City, NY 10027, United States of America",40.8051346,-73.9495760201908,Harlem 144 Apartment,7.0
681,"24st & 3rd Avenue, New York, NY, Kips Bay, New York City, 10010, United States of America",40.7363766,-73.9849353,#1Midtown Manhattan Loft Style 2 Bedroom,7.5
682,"East 54th Street & Park Avenue, Midtown East, New York City, NY 10022, United States of America",nan,nan,Sephora Inn,-999.0
683,"Broome Street & Forsyth Street, New York City, NY 10002, United States of America",nan,nan,Newly Renovated Three Bedroom Lower East Side,-999.0
684,"Various Locations near Times Square, Hell's Kitchen, New York City, NY 10019, United States of America",nan,nan,Superior Times Square Apartments,6.0
685,"50th Street between 10-11 Avenue, Hell's Kitchen, New York City, NY 10019, United States of America",nan,nan,Manhattan Studio Apartment mid-west,8.3
686,"Various Locations in Downtown West, New York, Chelsea, New York City, NY 10011, United States of America",nan,nan,onefinestay - Downtown West private homes IV,-999.0
687,"460 West 141st Street, Harlem, New York City, NY 10031, United States of America",40.8191286,-73.9410057,Sugar Hill Harlem Inn,7.3
688,"221 Avenue A, East Village, New York City, NY 10009, United States of America",40.73025215,-73.9808154657355,East Village Amazing 2 Bedroom,-999.0
689,"106 Bowery 2FL, Chinatown, New York City, NY 10013, United States of America",nan,nan,U.S. Pacific Hotel,5.9
690,"313 E 54th Street, Midtown East, New York City, 10022, United States of America",nan,nan,Midtown East Apartments,7.6
691,"220 Bowery, New York City, NY 10012, United States of America",40.7219999,-73.9937382,The Bowery House,6.8
692,"309 West 14th Street, Chelsea, New York City, NY 10014, United States of America",40.74024695,-74.0030914427773,Hotel 309,6.4
693,"Various Locations, New York City, NY 10019, United States of America",nan,nan,Apartments - Manhattan,6.7
694,"201 West 87th Street, Upper West Side, New York City, NY10024, United States of America",nan,nan,Central Park West Hostel,5.8
695,"73 East 3rd Street, East Village, New York City, NY 10003, United States of America",nan,nan,Interfaith East Village,-999.0
696,"West 109th Street & Broadway, Upper West Side, New York City, NY 10025, United States of America",nan,nan,Loft 109,7.8
697,"West 46th Street & 10th Avenue, Hell's Kitchen, New York City, NY 10036, United States of America",nan,nan,Chic 2 Bedrooms Duplex near Times Square,-999.0
698,"West 118th Street & Malcolm X Boulevard, Harlem, New York City, NY 10026, United States of America",nan,nan,Two Bedroom Suite-Harlem,-999.0
699,"1st Avenue & East 74th Street, Upper East Side, New York City, NY 10021, United States of America",nan,nan,Stylish Upper East Side 2 bed 2 bath,-999.0
700,"230 West 101 Street, Upper West Side, New York City, NY 10025, United States of America",nan,nan,Broadway Hotel & Hostel,7.2
701,"182 East 2nd Street 1D, East Village, New York City, NY 10009, United States of America",nan,nan,East Village Comfortable / New Studio Apartment,7.9
702,"38 W. 31st Street, New York City, 10001, United States of America",40.7522409,-73.9994661,The Grand NYC Apartments,5.4
703,"12th Street and 3rd Avenue , East Village, New York City, NY 10003, United States of America",nan,nan,Two Bedroom Luxury Apartment - Union Square,8.5
704,"Various locations in Downtown West, New York, New York City, NY 10011, United States of America",nan,nan,onefinestay - Downtown West private homes III,-999.0
705,"West 21st Street, Unit 309, Chelsea, New York City, 10011, United States of America",nan,nan,Sunny Chelsea Getaway,9.3
706,"100 Orchard Street, Lower East Side, New York City, NY 10002, United States of America",nan,nan,Blue Moon Boutique Hotel,7.8
707,"East 51st Street & 2nd Avenue, Midtown East, New York City, NY 10022, United States of America",nan,nan,Greenacre,-999.0
708,"Water Street and Maiden Lane, Wall Street - Financial District, New York City, NY 10005, United States of America",nan,nan,Studio Apartment - Financial District,-999.0
709,"West 50th Street & 11th Avenue, Hell's Kitchen, New York City, NY 10019, United States of America",nan,nan,Midtown West Self-Catering Apartment,7.9
710,"W 38th St and 6th Ave, New York City, 10018, United States of America",nan,nan,Bryant Park Studio Apartment Times Square South,7.9
711,"East 53rd Street & 3rd Avenue, Midtown East, New York City, NY 10022, United States of America",nan,nan,Three Bedroom Suite Midtown East,-999.0
712,"West 84th Street & Central Park West, Upper West Side, New York City, NY 10024, United States of America",nan,nan,New York Garden Duplex,-999.0
713,"8th Street and Avenue C, East Village, New York City, NY 10009, United States of America",nan,nan,Apartments at Avenue C,7.2
714,"W 31st & Broadway, New York City, NY 10001, United States of America",nan,nan,The Nomad Suites,6.9
715,"65 East 129th Street, East Harlem, New York City, 10035, United States of America",nan,nan,The Park Ave North,7.3
716,"Hamilton Heights, West Harlem, Harlem, New York City, NY 10032, United States of America",nan,nan,Le Jardin Harlem NYC,9.3
717,"Various locations in Uptown, NY, Harlem, New York City, NY 10027, United States of America",nan,nan,onefinestay – Uptown private homes,8.1
718,"38 West 31st Street, New York City, NY 10001, United States of America",40.7522409,-73.9994661,Tier31 by ABRIKIM,-999.0
719,"426 West 160th Street, Washington Heights, New York City, NY 10032, United States of America",40.83407875,-73.9394731554987,Jumel Terrace Bed & Breakfast,-999.0
720,"Jones Street & West 4th Street, Greenwich Village, New York City, NY 10014, United States of America",nan,nan,West Village Penthouse,-999.0
721,"West 54th and Broadway, New York City, NY 10019, United States of America",nan,nan,Times Square Bright Cozy & Luxurious Apartment - Times Square,6.7
722,"Broadway and West 31st, New York City, 10001, United States of America",nan,nan,New York Apartments,6.5
723,"38 West 31st Street, New York City, NY 10001, United States of America",40.7522409,-73.9994661,Studio Plus - Midtown Spacious Apartment,-999.0
724,"West 47th & 9th Ave, New York City, NY 10036, United States of America",nan,nan,My City House,6.8
725,"East 3rd Street and 1st Avenue, Lower East Side, New York City, NY 10002, United States of America",nan,nan,East Village Beach Bungalow Getaway,-999.0
726,"18 West 48th Street, Midtown East, New York City, NY 10036, United States of America",nan,nan,Bridgestreet at Centria,8.1
727,"515 West 52nd Street, Hell's Kitchen, New York City, 10019, United States of America",nan,nan,NY Away - Hells Kitchen/ Times Square 1-Bedroom 12A,-999.0
728,"49th Street & 8th Avenue, New York City, NY 10036, United States of America",nan,nan,New York City Gottaspot,7.4
729,"Broadway & Fulton, Tribeca, New York City, 10038, United States of America",40.7102411,-74.0077648,PermaGO City Hall,9.2
730,"458 West 141st Street, Harlem, New York City, NY 10031, United States of America",40.8191286,-73.9410057,Sugar Hill Suites,6.7
731,"New York City, 10019, United States of America",nan,nan,Essex House 1,-999.0
732,"149 West 118th Street, Harlem, New York City, NY 10026, United States of America",40.80433995,-73.9506570292714,NYC Townhouse Apartment,8.2
733,"West 109th Street & Broadway, Upper West Side, New York City, NY 10025, United States of America",nan,nan,109th Street Apartment,-999.0
734,"333 East 21st ST, Gramercy, New York City, 10010, United States of America",nan,nan,GRAMERCY PARK SPACIOUS 1 BR APT,7.7
735,"370 Eighth Avenue, 2nd Floor, Chelsea, New York City, 10001, United States of America",nan,nan,Chelsea Interfaith Retreats,7.9
736,"58 Henry Street, New York City, 10002, United States of America",40.7127294,-73.9950601599147,Renovated Studio Loft Downtown NYC #43,6.9
737,"244 West 99th Street, Upper West Side, New York City, NY 10025, United States of America",40.796654,-73.9708275,Hotel 99,8.7
738,"West 46th and 10th Avenue, Hell's Kitchen, New York City, 10019, United States of America",nan,nan,Spacious 2 Bedrooms Apartment - Times Square,-999.0
739,"38 West 31st Street, New York City, NY 10001, United States of America",40.7522409,-73.9994661,Exclusive Studio,-999.0
740,"943 Columbus Avenue , Upper West Side, New York City, 10025, United States of America",40.7993605,-73.9624587,Cozy Apartment Near Central Park,-999.0
741,"3 Mitchell Place, Midtown East, New York City, 10017, United States of America",nan,nan,Beekman Tower,-999.0
742,"East 31st Street & Madison Avenue, New York City, NY 10016, United States of America",nan,nan,31st Street and Madison Avenue Apartment,-999.0
743,"William Street and Fulton Street, Wall Street - Financial District, New York City, 10038, United States of America",nan,nan,PermaGO Wall Street,8.7
744,"East 45th & 3rd Ave, Midtown East, New York City, NY 10017, United States of America",nan,nan,Charming Studio by Grand Central,-999.0
745,"235 West 107 Street, Upper West Side, New York City, NY 10025, United States of America",nan,nan,Morningside Inn,6.0
746,"East 117th & 2nd Ave, East Harlem, New York City, NY 10035, United States of America",nan,nan,Harlem Three Bedroom Apartments,-999.0
747,"Various Locations, Chinatown, New York City, NY 10002, United States of America",nan,nan,Hostel - Chrystie Street,6.4
748,"527 West 143rd Street, Harlem, New York City, NY 10031, United States of America",nan,nan,Hamilton Heights: Luxurious 2 Bedroom Home,-999.0
749,"West 47th & 9th Ave, Hell's Kitchen, New York City, AK 10036, United States of America",nan,nan,Euro - Lovely Apartment,-999.0
750,"511 East 6 Street, East Village, New York City, 10009, United States of America",nan,nan,Cozy Two Bedrooms,6.4
751,"137 West 111th Street, Harlem, New York City, NY 10026, United States of America",40.79972755,-73.9536207704545,The Central Park North,7.1
752,"836 2nd Avenue, Midtown East, New York City, NY 10017, United States of America",nan,nan,Studio Apartment - United Nations Plaza,-999.0
753,"51 Pitt Street, Lower East Side, New York City, 10002, United States of America",40.7175954347826,-73.9829874347826,Lower East Side 3 Bedroom,8.1
754,"144 West 120th Street, Harlem, New York City, NY 10027, United States of America",40.8051346,-73.9495760201908,Harlem 144 Guest House,7.0
755,"30 Park Avenue, Murray Hill, New York City, 10016, United States of America",40.7482354,-73.9808116,30 Park Avenue,-999.0
756,"765 8th Avenue, Hell's Kitchen, New York City, NY 10036, United States of America",nan,nan,New York Inn,4.8
757,"266 West 71 Street, Upper West Side, New York City, NY 10023, United States of America",nan,nan,Inn New York City,8.6
758,"244 east 71 street, Upper East Side, New York City, 10021, United States of America",nan,nan,Beautiful studio/East 71 street,7.1
759,"160 Central Park South, New York, NY, New York City, 10019, United States of America",40.76617385,-73.9785096893545,Sensational 3 Bedroom Apartment with direct park views,-999.0
760,"160 East 116th Street, East Harlem, New York City, NY 10029, United States of America",40.7981979,-73.9413094543488,Rostel,6.9
761,"519 E 81st ST, Upper East Side, New York City, 10026, United States of America",nan,nan,Upper East Side Private Studio,7.2
762,"81 Bowery 2ND Floor, Chinatown, New York City, 10002, United States of America",nan,nan,Manhattan Bowery Lodge,5.6
763,"505 W 181st Street, Washington Heights, New York City, 10033, United States of America",40.8482960909091,-73.9310792727273,Hotel Cliff,6.3
764,"140 Hester Street, Chinatown, New York City, NY 10013, United States of America",40.7173221,-73.9958025,The SunBright,4.7
765,"538 West 47th Street, Hell's Kitchen, New York City, NY 10036, United States of America",40.76332265,-73.994894042904,One Bedroom Apartment - Midtown NYC,-999.0
766,"46th Street and 9th Ave, Hell's Kitchen, New York City, AK 10036, United States of America",nan,nan,La Casa de Mis Primos KELLY,7.8
767,"417 West 145th Street, Harlem, New York City, NY 10031, United States of America",40.8197265,-73.934592,Lita's New York Apartments,8.2
768,"38th Street & Madison Ave, New York City, NY 10019, United States of America",nan,nan,Apartments with Amazing Views near 5th Ave,-999.0
769,"West 50th and 10th Ave, Hell's Kitchen, New York City, NY 10019, United States of America",nan,nan,Room in Shared Apartment Steps from Times Square,-999.0
770,"35 East 76th Street, Upper East Side, New York City, NY 10021, United States of America",40.774381,-73.9629900927406,"The Carlyle, A Rosewood Hotel",8.5
771,"West 22nd Street & 8th Ave, Chelsea, New York City, NY 10011, United States of America",nan,nan,Studio at Chelsea,7.2
772,"Broadway and Amsterdam, Harlem, New York City, 10031, United States of America",nan,nan,NYC Cozy & Spacious Apt,6.7
773,"94 Thompson Street Apartment PHT, SoHo, New York City, NY 10012, United States of America",nan,nan,Three Bedroom Penthouse - Thompson Street,-999.0
774,"Various locations in Uptown, NY, Harlem, New York City, 10027, United States of America",nan,nan,onefinestay - Uptown private homes II,-999.0
775,"Broadway & Hamilton, Harlem, New York City, 10031, United States of America",nan,nan,Lovely Two Bedroom Apt,7.2
776,"West 49th and 10th Ave, Hell's Kitchen, New York City, 10019, United States of America",nan,nan,Amazing 2 Bedrooms at Theater District,-999.0
777,"101 Bowery, New York City, NY 10002, United States of America",40.7174644,-73.994962472679,World Hotel,4.6
778,"224 East 13th Street, East Village, New York City, NY 10003, United States of America",nan,nan,East Village Homestay,8.3
779,"143 Bowery, New York City, NY 10002, United States of America",40.7189269,-73.9942378072994,Bowery Grand Hotel,5.0
780,"104-04 Ditmars Boulevard, Queens, NY 11369, United States of America",40.7824664,-73.9196721,LaGuardia Plaza Hotel,8.2
781,"39-16 College Point Boulevard, Queens, NY 11354, United States of America",40.758372,-73.8345884,The Parc Hotel,8.0
782,"112-26 Roosevelt Ave, Queens, NY 11368, United States of America",40.7581065,-73.8351288,Best Western Plus LaGuardia Airport Hotel,7.9
783,"138-10 135th Avenue, Queens, NY 11436, United States of America",40.6672705,-73.7996123476443,Crowne Plaza JFK Airport,7.7
784,"144-02 135th Avenue, Queens, NY 11436, United States of America",40.6678021,-73.7953369,Hilton New York JFK Airport Hotel,7.3
785,"15395 Rockaway Boulevard, Queens, NY 11434, United States of America",40.6579201,-73.7707547,"Howard Johnson Inn-JFK Airport, Jamaica, Queens, NYC",6.7
786,"38-59 12th Street, Queens, NY 11101, United States of America",40.7625376,-73.938069,Howard Johnson Long Island City,7.1
787,"38-28 27th Street, Queens, NY 11101, United States of America",40.7565135,-73.9340106,Boro Hotel,8.5
788,"135-30 140th Street, Queens, NY 11436, United States of America",40.66731195,-73.7986380031339,Radisson JFK Airport,6.9
789,"14425 153rd Lane, Queens, NY 11434, United States of America",40.6664043,-73.7850391,Best Western JFK Airport,7.4
790,"37-06 36th Street, Queens, NY 11101, United States of America",40.7527468,-73.9275019,Paper Factory Hotel,8.1
791,"144-10 135th Avenue, Queens, NY 11436, United States of America",40.6676403,-73.7948824,Hampton Inn NY-JFK Jamaica-Queens,7.9
792,"39-12 29th Street, Queens, NY 11101, United States of America",40.765097,-73.9250609,Nesva Hotel - New York City Vista,8.5
793,"135-21 37 Avenue, Queens, NY 11354, United States of America",nan,nan,Asiatic Hotel - Flushing,7.9
794,"20-07 127th Street, Queens, NY 11356, United States of America",40.78505,-73.8412268,Hotel de Point,7.8
795,"85 Flatbush Ave Extension, Brooklyn, Downtown Brooklyn, Brooklyn, NY 11201, United States of America",nan,nan,Dazzler Brooklyn,8.2
796,"9 Beaver Street, Bushwick, Brooklyn, NY 11206, United States of America",40.699833,-73.9369629,Bklyn House Hotel New York Brooklyn,7.8
798,"85 Smith Street, Boerum Hill, Brooklyn, NY 11201, United States of America",nan,nan,NU Hotel,8.7
799,"228 Duffield Street, Downtown Brooklyn, Brooklyn, NY 11201, United States of America",nan,nan,Sheraton Brooklyn New York,7.9
801,"77 Box Street, Brooklyn, NY 11222, United States of America",40.73782865,-73.9536848684755,The Box House Hotel,9.1
802,"764 4th Avenue, Brooklyn, NY 11232, United States of America",40.6603512,-73.9984418,Best Western PLUS Prospect Park Hotel,8.0
803,"533 3rd Avenue, Brooklyn, NY 11215, United States of America",40.6687084,-73.9929943111836,La Quinta Inn & Suites Brooklyn Downtown,7.1
804,"1199 Atlantic Ave Brooklyn, Bed-Stuy, Brooklyn, NY 11216, United States of America",nan,nan,Brooklyn A Hotel,8.7
805,"216 Duffield Street, Downtown Brooklyn, Brooklyn, NY 11201, United States of America",nan,nan,Aloft Brooklyn,8.4
806,"370 4th Avenue, Brooklyn, NY 11215, United States of America",40.67327045,-73.9870998066863,Hotel Le Bleu,8.1
807,"229 Duffield Street, Downtown Brooklyn, Brooklyn, NY 11201, United States of America",nan,nan,Hotel Indigo – Downtown Brooklyn/NY,7.9
808,"251 North Henry Street, Brooklyn, NY 11222, United States of America",40.7280189,-73.9442466421253,Henry Norman Hotel,9.1
809,"17 Seabring Street, Brooklyn, NY 11231, United States of America",40.6799991,-74.005963079816,Comfort Inn Red Hook,7.4
810,"279 Butler Street, Brooklyn, NY 11217, United States of America",40.6814196,-73.9845731,Red Lion Inn and Suites Brooklyn,7.3
811,"214 Franklin Street, Brooklyn, NY 11222, United States of America",40.73307255,-73.957819511058,Franklin Guesthouse,9.1
